{
"type": "FeatureCollection",
"name": "irrigation_canal",
"features": [
{"type":"Feature","properties":{"id":1767,"stream_id":4000043.0,"stream":4.0,"str_class":4,"str_order":3,"length_m":237.772421,"str_cl_e":"Irrigation canal","str_cl_t":"คลองชลประทาน","str_name_e":"Irrigation Canal","str_name_t":"คลองชลประทาน"},"geometry":{"type":"LineString","coordinates":[[99.7744566,19.4226543],[99.7744967,19.4224463],[99.7745325,19.4222202],[99.7745329,19.4220575],[99.7745322,19.4218949],[99.7745207,19.4217413],[99.7744962,19.4215878],[99.7744352,19.4214073],[99.7743628,19.4212088],[99.7743031,19.4210374],[99.7742422,19.420875],[99.774194,19.4207487],[99.7741146,19.4205773]]}},
{"type":"Feature","properties":{"id":2360,"stream_id":4000043.0,"stream":4.0,"str_class":4,"str_order":3,"length_m":737.624101,"str_cl_e":"Irrigation canal","str_cl_t":"คลองชลประทาน","str_name_e":"Irrigation Canal","str_name_t":"คลองชลประทาน"},"geometry":{"type":"LineString","coordinates":[[99.7847898,19.3903762],[99.7847908,19.3902136],[99.7847899,19.3900328],[99.7848021,19.389834],[99.7848385,19.3896079],[99.7848993,19.3893908],[99.7849606,19.3892549],[99.7849836,19.3891012],[99.7850446,19.3889112],[99.7851055,19.388685],[99.7851776,19.3884678],[99.7852511,19.3882868],[99.7852996,19.3880968],[99.7853471,19.3879339],[99.7853959,19.3876988],[99.7854681,19.3874816],[99.7855291,19.3873006],[99.7855652,19.3871378],[99.7856138,19.3869658],[99.7856742,19.3867758],[99.7857466,19.3866038],[99.7858067,19.386477],[99.7858679,19.3863412],[99.7859161,19.3862145],[99.7860011,19.3860695],[99.7860985,19.3858974],[99.7861937,19.3857705],[99.7862789,19.3856617],[99.786364,19.3855348],[99.786461,19.3854079],[99.786545,19.38529],[99.78663,19.3851541],[99.7867388,19.3850091],[99.7868602,19.384882],[99.7870171,19.3847187],[99.7871623,19.3845735],[99.7873199,19.3844282],[99.7874107,19.3843736]]}},
{"type":"Feature","properties":{"id":3614,"stream_id":4000040.0,"stream":4.0,"str_class":4,"str_order":0,"length_m":4360.877514,"str_cl_e":"Irrigation canal","str_cl_t":"คลองชลประทาน","str_name_e":"Irrigation Canal","str_name_t":"คลองชลประทาน"},"geometry":{"type":"LineString","coordinates":[[99.8643564,19.3525862],[99.8643449,19.352541],[99.8642603,19.3524059],[99.8641762,19.3522527],[99.8640915,19.3520994],[99.8640069,19.3519733],[99.8639337,19.3518652],[99.8638616,19.35173],[99.8637893,19.3515587],[99.8637407,19.3513691],[99.8637163,19.3512427],[99.8636677,19.3510532],[99.8636568,19.3509087],[99.8636449,19.3508003],[99.8636204,19.3506649],[99.8635961,19.3504662],[99.8635716,19.3503307],[99.8635722,19.3502133],[99.8635233,19.3499695],[99.8634988,19.3497166],[99.8634638,19.3495089],[99.8634392,19.3493645],[99.8633792,19.3491479],[99.8633421,19.3490034],[99.8632702,19.3487869],[99.8632214,19.3486877],[99.8631492,19.3485345],[99.8630884,19.3483992],[99.8630049,19.3482369],[99.8629188,19.3480476],[99.8628352,19.3478853],[99.8627505,19.3477231],[99.8626536,19.3475157],[99.86257,19.3473444],[99.8624725,19.347146],[99.8624003,19.3469837],[99.8623029,19.3468035],[99.8622066,19.3465961],[99.8621226,19.3464519],[99.8620503,19.3462896],[99.8619529,19.3461003],[99.8618808,19.345956],[99.8618074,19.3458118],[99.861735,19.3456223],[99.8616629,19.3454871],[99.8615786,19.3452887],[99.8615303,19.3451534],[99.8614819,19.3450091],[99.8614336,19.3448737],[99.8613974,19.3447745],[99.8613611,19.3446662],[99.8612886,19.3444587],[99.8612408,19.3442963],[99.8611919,19.34417],[99.8611198,19.3440348],[99.8610476,19.3438725],[99.8609869,19.3437734],[99.8609149,19.3436563],[99.8608542,19.3435391],[99.8607454,19.3434311],[99.8606609,19.3433231],[99.8605754,19.3432422],[99.8604678,19.3431523],[99.8603835,19.3430714],[99.860298,19.3429905],[99.8602018,19.3429096],[99.8600446,19.3427748],[99.8599357,19.3426669],[99.8598389,19.3425769],[99.8597425,19.342478],[99.8596329,19.3423339],[99.859561,19.3422349],[99.8594646,19.3421178],[99.8593799,19.3419737],[99.8593443,19.3418654],[99.859296,19.3417481],[99.8592477,19.3416128],[99.8592108,19.3414865],[99.8591625,19.3413602],[99.8591265,19.3411887],[99.8591145,19.3410622],[99.8590781,19.3409268],[99.8590543,19.340692],[99.8590297,19.3405385],[99.8590063,19.340394],[99.8589693,19.3402496],[99.8589454,19.3401232],[99.8589092,19.3400149],[99.8588608,19.3398796],[99.8587524,19.3396271],[99.8586923,19.3395009],[99.8586191,19.3393838],[99.8585219,19.3392396],[99.8584737,19.3391224],[99.8584017,19.3390052],[99.8583415,19.338879],[99.8582933,19.3387527],[99.8582211,19.3385994],[99.8581848,19.3384821],[99.8581484,19.3383558],[99.8581,19.3382024],[99.8580756,19.338076],[99.8580392,19.3379497],[99.8580031,19.3377691],[99.8579672,19.3376066],[99.857931,19.3373899],[99.8579069,19.3372364],[99.8578824,19.3370919],[99.8578587,19.3368842],[99.8578341,19.3367217],[99.8578344,19.336559],[99.8578217,19.3364145],[99.8578227,19.3361343],[99.857823,19.3358542],[99.8578225,19.3356554],[99.8577864,19.3354568],[99.8577865,19.335258],[99.8577743,19.3350863],[99.8577623,19.3348334],[99.8577624,19.3346255],[99.857763,19.3343906],[99.8577745,19.3340923],[99.857762,19.3338664],[99.8577621,19.3336586],[99.8577627,19.3334327],[99.8577625,19.33327],[99.8577503,19.3330984],[99.857738,19.3329087],[99.8577147,19.3327823],[99.8577021,19.3326468],[99.8576658,19.3325385],[99.8576291,19.3323399],[99.857618,19.3321411],[99.8576178,19.3319965],[99.8576171,19.33187],[99.8576425,19.3317073],[99.8576661,19.3315626],[99.8577028,19.3314088],[99.8577513,19.3312368],[99.8577869,19.3311011],[99.8578354,19.3309382],[99.8579204,19.3308113],[99.8579804,19.3306755],[99.8580648,19.3305486],[99.8581374,19.3304488],[99.8582463,19.3303218],[99.8583315,19.3302401],[99.8584156,19.3301584],[99.858524,19.3300765],[99.8586206,19.3299947],[99.8587059,19.329922],[99.8588261,19.3298221],[99.8589227,19.3297493],[99.8590072,19.3296405],[99.859116,19.3295044],[99.859201,19.3293775],[99.8592735,19.3292416],[99.8593333,19.3290877],[99.8593699,19.3289159],[99.8593823,19.3287712],[99.8593828,19.3286447],[99.8593581,19.3284822],[99.8593337,19.3283648],[99.8592135,19.3281304],[99.859129,19.3280133],[99.8590434,19.3279053],[99.8588993,19.3277704],[99.8587779,19.3276535],[99.8586208,19.3275278],[99.8582222,19.3272043],[99.8581134,19.3271054],[99.8580178,19.3270245],[99.857896,19.3269347],[99.8576904,19.326764],[99.8575828,19.3266651],[99.8574848,19.3265752],[99.8573533,19.3264493],[99.8572688,19.3263503],[99.8571472,19.3261882],[99.8570627,19.3260712],[99.8570032,19.3259449],[99.8569186,19.3258098],[99.8568703,19.3256835],[99.856822,19.3255482],[99.8567496,19.3253497],[99.8567125,19.3251963],[99.8566641,19.3250429],[99.8566166,19.3248352],[99.8565795,19.3246818],[99.8565436,19.3245193],[99.8564955,19.3243117],[99.856447,19.3241402],[99.8563994,19.3239145],[99.8563508,19.3237159],[99.8563021,19.3234993],[99.8562416,19.3231923],[99.8561808,19.3229396],[99.8561088,19.3225965],[99.8560485,19.3223257],[99.8560001,19.3220549],[99.8559406,19.3217208],[99.8559042,19.3214679],[99.8558797,19.321215],[99.8558442,19.320917],[99.8558072,19.3206641],[99.8557592,19.3203481],[99.855759,19.3200951],[99.8557347,19.3198693],[99.8557231,19.3195982],[99.8557226,19.3193904],[99.8557227,19.3191735],[99.8557225,19.3190108],[99.8557229,19.3188753],[99.8557352,19.3187216],[99.8557346,19.3185951],[99.8557476,19.3184685],[99.8557592,19.3182968],[99.8557715,19.3181521],[99.8558075,19.3179712],[99.8558204,19.3178175],[99.8558441,19.3177],[99.8558684,19.3175643],[99.8558924,19.3173744],[99.8559172,19.3172297],[99.8559409,19.317085],[99.85594,19.3169224],[99.8559406,19.3167958],[99.8559411,19.3166784],[99.855941,19.3165338],[99.8559039,19.3163803],[99.8558682,19.3162721]]}},
{"type":"Feature","properties":{"id":1985,"stream_id":4000043.0,"stream":4.0,"str_class":4,"str_order":3,"length_m":1676.542718,"str_cl_e":"Irrigation canal","str_cl_t":"คลองชลประทาน","str_name_e":"Irrigation Canal","str_name_t":"คลองชลประทาน"},"geometry":{"type":"LineString","coordinates":[[99.826988,19.4149675],[99.8270238,19.4148679],[99.827096,19.4146507],[99.8271927,19.4143521],[99.8272652,19.4140987],[99.8273375,19.4138092],[99.827447,19.4134382],[99.8275317,19.4131306],[99.8276406,19.4127686],[99.8277248,19.4124701],[99.8278102,19.4121715],[99.8279185,19.4118095],[99.8280152,19.4115109],[99.8281242,19.4111579],[99.8282205,19.4109045],[99.8283308,19.4105877],[99.8284266,19.4103523],[99.8285118,19.410126],[99.8286199,19.4098363],[99.8287045,19.4096191],[99.828789,19.4093928],[99.8288983,19.4091121],[99.8289955,19.4089039],[99.8290927,19.4087046],[99.829201,19.4084692],[99.8292977,19.408288],[99.8294186,19.4080615],[99.8295146,19.4078623],[99.8296369,19.407672],[99.8298056,19.407382],[99.8299389,19.4071284],[99.8301451,19.4068292],[99.8302892,19.4066117],[99.830495,19.4063487],[99.8306643,19.4061582],[99.8308337,19.4059857],[99.831015,19.4058222],[99.8311229,19.4057313],[99.8312692,19.4056042],[99.8313896,19.4055042],[99.831511,19.4053952],[99.8316562,19.405268],[99.8317654,19.4051953],[99.8318981,19.4050862],[99.8320903,19.4049588],[99.8322121,19.404904],[99.8323802,19.404831],[99.8325746,19.4047939],[99.8327316,19.4047571],[99.8328887,19.4047564],[99.8330701,19.4047284],[99.8332998,19.4047183],[99.833517,19.4047083],[99.8337225,19.4047345],[99.8339887,19.4047603],[99.8341823,19.4047866],[99.8343753,19.4048218],[99.8345929,19.404875],[99.8348229,19.4049192],[99.8349564,19.4049637],[99.835174,19.405035],[99.8353303,19.4050885],[99.8355003,19.4051691],[99.8356439,19.4052046],[99.8357895,19.4052581],[99.8359587,19.4052935]]}},
{"type":"Feature","properties":{"id":1438,"stream_id":4000041.0,"stream":4.0,"str_class":4,"str_order":1,"length_m":1941.716689,"str_cl_e":"Irrigation canal","str_cl_t":"คลองชลประทาน","str_name_e":"Irrigation Canal","str_name_t":"คลองชลประทาน"},"geometry":{"type":"LineString","coordinates":[[99.8080947,19.4392706],[99.8084339,19.4392419],[99.8089048,19.4393573],[99.8093402,19.439518],[99.8096791,19.4396611],[99.8099679,19.4397954],[99.8102713,19.4399928],[99.8104767,19.4401184],[99.8106584,19.4402441],[99.8108513,19.4403698],[99.811093,19.4404862],[99.8112745,19.4405938],[99.8114195,19.4406564],[99.8115771,19.440737],[99.8116971,19.4407997],[99.8118302,19.4408805],[99.8119389,19.4409432],[99.8121443,19.4410688],[99.8122536,19.4411406],[99.8123987,19.4412303],[99.8125918,19.4413741],[99.8127244,19.4414729],[99.812858,19.4416349],[99.8129903,19.441788],[99.8130868,19.441914],[99.8131713,19.4420221],[99.8132197,19.4421665],[99.8132441,19.4423019],[99.8132558,19.4424916],[99.8132803,19.442618],[99.8133049,19.4427806],[99.8133886,19.44297],[99.8134849,19.4430599],[99.8136425,19.4431496],[99.8137642,19.4431942],[99.8139931,19.4432564],[99.8141861,19.4432736],[99.8143434,19.4433],[99.814562,19.4433081],[99.8147191,19.4433074],[99.8148638,19.4432977],[99.815021,19.4433151],[99.8151532,19.4433235],[99.8153344,19.4433498],[99.8154916,19.4433672],[99.8156615,19.4434026],[99.8158188,19.443438],[99.8159756,19.4434825],[99.8161927,19.4435448],[99.81635,19.4435802],[99.8165438,19.4436335],[99.8166886,19.443669],[99.8169312,19.4437222],[99.8171363,19.4437755],[99.8172937,19.4438109],[99.8175469,19.4438459],[99.8177416,19.4438631],[99.817874,19.4438896],[99.8181403,19.4439336],[99.8182975,19.4439419],[99.8184906,19.4439772],[99.8186954,19.4439763],[99.818914,19.4440024],[99.8192035,19.4440192],[99.8194333,19.4440181],[99.8196875,19.444017],[99.8199769,19.4440247],[99.820208,19.4440417],[99.8204372,19.4440407],[99.8206907,19.4440124],[99.8209686,19.4439931],[99.8211746,19.4439831],[99.8213913,19.4439731],[99.8216579,19.4439629],[99.8218877,19.4439618],[99.8221533,19.4439606],[99.8223955,19.4439505],[99.8226248,19.4439495],[99.8229277,19.443939],[99.823145,19.443929],[99.8233991,19.4439098],[99.8235802,19.443918],[99.8237373,19.4439173],[99.8238945,19.4439166],[99.8240279,19.443916],[99.824185,19.4439062],[99.8243176,19.4438785],[99.8245116,19.4438596],[99.8245937,19.4437236]]}},
{"type":"Feature","properties":{"id":1396,"stream_id":4000041.0,"stream":4.0,"str_class":4,"str_order":1,"length_m":151.751097,"str_cl_e":"Irrigation canal","str_cl_t":"คลองชลประทาน","str_name_e":"Irrigation Canal","str_name_t":"คลองชลประทาน"},"geometry":{"type":"LineString","coordinates":[[99.7623145,19.4421832],[99.7623447,19.4420711],[99.7623814,19.4419173],[99.7624296,19.441655],[99.7624657,19.4414741],[99.7625261,19.4411486],[99.762563,19.4410129],[99.7625782,19.4408366]]}},
{"type":"Feature","properties":{"id":2925,"stream_id":4000041.0,"stream":4.0,"str_class":4,"str_order":1,"length_m":229.714605,"str_cl_e":"Irrigation canal","str_cl_t":"คลองชลประทาน","str_name_e":"Irrigation Canal","str_name_t":"คลองชลประทาน"},"geometry":{"type":"LineString","coordinates":[[99.8648841,19.3545988],[99.864852,19.3544815],[99.864816,19.35431],[99.8647684,19.3540933],[99.8647198,19.3538947],[99.8646837,19.3537051],[99.8645984,19.3534525],[99.8645503,19.3532449],[99.8644776,19.3530013],[99.8644291,19.3528298],[99.8643934,19.3527035],[99.8643564,19.3525862]]}},
{"type":"Feature","properties":{"id":1397,"stream_id":4000041.0,"stream":4.0,"str_class":4,"str_order":1,"length_m":19.802541,"str_cl_e":"Irrigation canal","str_cl_t":"คลองชลประทาน","str_name_e":"Irrigation Canal","str_name_t":"คลองชลประทาน"},"geometry":{"type":"LineString","coordinates":[[99.7625782,19.4408366],[99.7624131,19.4409231]]}},
{"type":"Feature","properties":{"id":2829,"stream_id":4000043.0,"stream":4.0,"str_class":4,"str_order":3,"length_m":3331.203056,"str_cl_e":"Irrigation canal","str_cl_t":"คลองชลประทาน","str_name_e":"Irrigation Canal","str_name_t":"คลองชลประทาน"},"geometry":{"type":"LineString","coordinates":[[99.8581859,19.3851017],[99.8585044,19.3842056],[99.8585891,19.3840154],[99.8586737,19.3838162],[99.8587946,19.3835988],[99.8589031,19.3834085],[99.8590234,19.383191],[99.8590963,19.383028],[99.8591693,19.3828741],[99.8592424,19.3827382],[99.859326,19.3825661],[99.8593859,19.3824032],[99.8594708,19.3822582],[99.8595556,19.382077],[99.8596288,19.3819683],[99.8596776,19.3818596],[99.8597614,19.3817146],[99.8598221,19.3816059],[99.8598946,19.381479],[99.8599546,19.3813432],[99.8600518,19.381153],[99.8601115,19.3809539],[99.860137,19.3808272],[99.8601603,19.3806193],[99.8601729,19.3804204],[99.8601604,19.380294],[99.8601355,19.3800863],[99.8601006,19.3798967],[99.8600517,19.3796529],[99.8600032,19.3794814],[99.8599434,19.3793191],[99.8598948,19.3791386],[99.8598466,19.3790123],[99.8597983,19.378895],[99.8597501,19.3787778],[99.8596412,19.3785524],[99.8596054,19.378426],[99.8595571,19.3782907],[99.8595087,19.3781283],[99.859496,19.3779928],[99.8594841,19.3778664],[99.8595083,19.3777126],[99.8595201,19.377586],[99.8595926,19.3773417],[99.8596774,19.3771606],[99.8597504,19.3770157],[99.8598104,19.3768889],[99.8599557,19.3766713],[99.8600644,19.3765172],[99.8601488,19.3763903],[99.8602214,19.3762634],[99.8603061,19.3760913],[99.8603786,19.3759554],[99.8604268,19.3758287],[99.860488,19.3757019],[99.86056,19.3754756],[99.860596,19.3752947],[99.8606202,19.37515],[99.8606326,19.3750235],[99.8606318,19.3748698],[99.8606322,19.3747162],[99.8606206,19.3745536],[99.8605957,19.3743459],[99.8605849,19.3742014],[99.8605729,19.3740749],[99.8605601,19.3739123],[99.8605594,19.3737768],[99.8605723,19.373614],[99.860584,19.3734784],[99.8606326,19.3733155],[99.8606688,19.3731889],[99.8607056,19.3730531],[99.8607778,19.3728721],[99.8608389,19.3727091],[99.8609234,19.3724918],[99.8609832,19.3723199],[99.8610437,19.3721569],[99.8611159,19.3719759],[99.8611769,19.3718129],[99.861237,19.3716861],[99.8612978,19.371478],[99.8613583,19.3713241],[99.8614068,19.3711522],[99.8614912,19.3709168],[99.8615522,19.3707358],[99.8616231,19.3705366],[99.8616599,19.3704009],[99.8617091,19.3701477],[99.8617446,19.3698764],[99.8617569,19.3697137],[99.8617697,19.369551],[99.8617931,19.3693611],[99.8617934,19.3691894],[99.8617938,19.3690358],[99.8617933,19.368837],[99.8617937,19.3686924],[99.8617932,19.3684845],[99.8617936,19.3683219],[99.861794,19.3681683],[99.8617935,19.3679604],[99.8617938,19.3678068],[99.8617933,19.3675899],[99.8617936,19.3674182],[99.8618058,19.3672555],[99.8618048,19.3670658],[99.8618064,19.3669212],[99.8618058,19.3667947],[99.8617932,19.3666682],[99.8617822,19.3664875],[99.8617815,19.366361],[99.8617695,19.3662346],[99.8617569,19.3660991],[99.8617581,19.3658822],[99.8617575,19.3657557],[99.8617944,19.3655386],[99.8618295,19.3654119],[99.8618907,19.3652851],[99.8619751,19.3651582],[99.8620602,19.3650494],[99.8622779,19.3648044],[99.8623867,19.3646593],[99.8625192,19.3645141],[99.8626995,19.3642873],[99.8628455,19.3640968],[99.8630022,19.3639063],[99.8631833,19.3637247],[99.8633046,19.3635886],[99.863426,19.3634706],[99.8635461,19.3633525],[99.8637404,19.3631709],[99.8638729,19.3630257],[99.8639694,19.3629348],[99.8641267,19.3627353],[99.8642231,19.3626354],[99.8643195,19.3625175],[99.8644408,19.3623814],[99.8645371,19.3622544],[99.8646347,19.3621365],[99.8647672,19.3619822],[99.8648758,19.3618281],[99.864997,19.3616648],[99.8651292,19.3614654],[99.8652498,19.3613112],[99.8653833,19.3611298],[99.8654796,19.3609938],[99.8655522,19.360876],[99.8656491,19.360749],[99.8657696,19.3605768],[99.8658782,19.3604136],[99.8659513,19.3602777],[99.8660361,19.3601056],[99.8661082,19.3599155],[99.8661568,19.3597617],[99.8662168,19.3596168],[99.8662774,19.35949],[99.8663386,19.3593541],[99.8663984,19.3592002],[99.8664352,19.3590555],[99.866471,19.3588565],[99.8664953,19.3587299],[99.8665198,19.3585219],[99.8665316,19.3583953],[99.866556,19.3581603],[99.8665676,19.3579885],[99.8665799,19.3578349],[99.8665804,19.3577083],[99.866547,19.3573651]]}},
{"type":"Feature","properties":{"id":1847,"stream_id":4000043.0,"stream":4.0,"str_class":4,"str_order":3,"length_m":2544.608819,"str_cl_e":"Irrigation canal","str_cl_t":"คลองชลประทาน","str_name_e":"Irrigation Canal","str_name_t":"คลองชลประทาน"},"geometry":{"type":"LineString","coordinates":[[99.826085,19.437807],[99.8260843,19.4376805],[99.8260856,19.4374636],[99.8260859,19.4371654],[99.8260851,19.4368943],[99.8260861,19.4366141],[99.8260736,19.4362708],[99.8260614,19.4359817],[99.8260371,19.4356384],[99.8260375,19.4353673],[99.8260261,19.4351234],[99.8260128,19.4348343],[99.8260142,19.4346445],[99.8260013,19.4344458],[99.8260024,19.4341927],[99.8260013,19.4339849],[99.8260019,19.4337499],[99.8260014,19.433524],[99.8260016,19.4333252],[99.8260019,19.4330361],[99.826002,19.4328282],[99.8260264,19.4325841],[99.826038,19.4322859],[99.8260392,19.4320599],[99.8260635,19.4317978],[99.8260869,19.4315898],[99.8260994,19.4313729],[99.8261237,19.4311017],[99.8261594,19.4308756],[99.826172,19.4306587],[99.8261964,19.4304055],[99.8262207,19.4301614],[99.8262568,19.4298811],[99.8262814,19.4296732],[99.8263048,19.4294743],[99.8263297,19.4292211],[99.8263419,19.4290584],[99.8263778,19.4288414],[99.8263907,19.4286967],[99.8264143,19.4285249],[99.8264273,19.4283984],[99.8264267,19.4282719],[99.8264503,19.4281091],[99.8264632,19.4279645],[99.8264749,19.4278108],[99.8264995,19.4276028],[99.8265117,19.4274311],[99.826512,19.4272594],[99.8265115,19.4270335],[99.8265117,19.4268437],[99.8265119,19.4266449],[99.8264875,19.426401],[99.8264763,19.4262023],[99.8264634,19.4259945],[99.8264281,19.4257326],[99.8264032,19.4255158],[99.8263668,19.425263],[99.8263439,19.4250823],[99.8263067,19.4249198],[99.8262582,19.4247393],[99.826211,19.424595],[99.8261739,19.4244234],[99.8261258,19.4242158],[99.8260772,19.4240263],[99.8260285,19.4238096],[99.8260049,19.423629],[99.8259815,19.4234574],[99.8259685,19.4232587],[99.8259938,19.4230778],[99.8260287,19.422906],[99.8260781,19.4226708],[99.8260907,19.4224539],[99.8261265,19.4222368],[99.8261756,19.4219474],[99.8261869,19.4217034],[99.8262114,19.4213689],[99.8262473,19.4210615],[99.8262727,19.4207722],[99.8262963,19.4203745],[99.8263202,19.4200491],[99.826345,19.4196514],[99.8263576,19.419317],[99.826394,19.4189734],[99.8264175,19.4185757],[99.8264425,19.4182231],[99.8264784,19.4177802],[99.8265147,19.4174276],[99.8265396,19.417057],[99.8265993,19.4166049],[99.8266357,19.4162794],[99.8266963,19.4158996],[99.8267693,19.4156191],[99.8268424,19.4153658],[99.8269505,19.4150851],[99.826988,19.4149675]]}},
{"type":"Feature","properties":{"id":1801,"stream_id":4000043.0,"stream":4.0,"str_class":4,"str_order":3,"length_m":188.692639,"str_cl_e":"Irrigation canal","str_cl_t":"คลองชลประทาน","str_name_e":"Irrigation Canal","str_name_t":"คลองชลประทาน"},"geometry":{"type":"LineString","coordinates":[[99.7741146,19.4205773],[99.7740737,19.4204871],[99.7739653,19.4202345],[99.7738806,19.4200632],[99.7738082,19.4198738],[99.7737121,19.4196844],[99.7736272,19.4194769],[99.773579,19.4193506],[99.7734952,19.4191431],[99.773438,19.4189988]]}},
{"type":"Feature","properties":{"id":2380,"stream_id":4000043.0,"stream":4.0,"str_class":4,"str_order":3,"length_m":3361.895432,"str_cl_e":"Irrigation canal","str_cl_t":"คลองชลประทาน","str_name_e":"Irrigation Canal","str_name_t":"คลองชลประทาน"},"geometry":{"type":"LineString","coordinates":[[99.8423938,19.3973297],[99.8423669,19.3971852],[99.8423185,19.3969234],[99.8422816,19.3967971],[99.8422332,19.3966527],[99.8421735,19.3964993],[99.8420648,19.3963101],[99.8419204,19.396121],[99.8417628,19.3959229],[99.8416297,19.3957338],[99.8415698,19.3955443],[99.8415576,19.3953726],[99.841582,19.3951376],[99.8416057,19.3950019],[99.8416425,19.3948572],[99.8417033,19.3946581],[99.8417508,19.3945133],[99.8417873,19.3943233],[99.8418481,19.3941062],[99.8418954,19.3939343],[99.8419446,19.3937714],[99.8419807,19.3936266],[99.8420167,19.3934457],[99.8420296,19.393283],[99.8419937,19.3931295],[99.8419453,19.3929761],[99.8418844,19.3928318],[99.8417998,19.3926967],[99.8416788,19.3925436],[99.8415949,19.3924446],[99.8414616,19.3923278],[99.8413163,19.3921929],[99.8411715,19.392049],[99.8410636,19.3918958],[99.8410151,19.3917244],[99.8409903,19.3915257],[99.8409902,19.3913992],[99.8410031,19.3912455],[99.841039,19.3910556],[99.8410751,19.3908837],[99.8411117,19.3907209],[99.841159,19.3905399],[99.8411962,19.3903681],[99.8412565,19.390169],[99.8413051,19.3900061],[99.8413775,19.3898521],[99.8414496,19.3896349],[99.8415106,19.3894629],[99.8415597,19.389291],[99.8416317,19.3890557],[99.8417039,19.3888656],[99.8417646,19.3886304],[99.8418736,19.3882955],[99.8419698,19.388033],[99.842079,19.3877253],[99.8421886,19.3875169],[99.8422722,19.3873358],[99.8423693,19.3871275],[99.8424418,19.3869917],[99.8425256,19.3868467],[99.8425868,19.3867199],[99.8426717,19.3865659],[99.8427683,19.3863576],[99.8428651,19.3862035],[99.8429618,19.3860314],[99.843082,19.3857868],[99.8431906,19.3856146],[99.8433127,19.3853972],[99.8434088,19.3852341],[99.8435063,19.385089],[99.843615,19.3849259],[99.8436865,19.3848261],[99.8438448,19.3846085],[99.8440127,19.3843909],[99.8441217,19.384291],[99.8442307,19.3841911],[99.8443522,19.3840911],[99.8444608,19.3840183],[99.8446541,19.3838909],[99.8448119,19.3837908],[99.8449324,19.3837179],[99.8450652,19.3836269],[99.8451857,19.3835721],[99.8453074,19.3834993],[99.8454766,19.3834262],[99.8455971,19.3833624],[99.8457176,19.3833076],[99.8458394,19.3832619],[99.8460444,19.3831977],[99.8462487,19.3831244],[99.8464307,19.3830874],[99.8466127,19.3830775],[99.8468057,19.3831037],[99.847096,19.3832018],[99.8472774,19.3832823],[99.8474587,19.3833628],[99.8476754,19.3834792],[99.8478455,19.3835778],[99.8480269,19.3836764],[99.8481589,19.3837661],[99.8482928,19.383874],[99.8484619,19.3840087],[99.848594,19.3841165],[99.8487632,19.3842603],[99.8488834,19.3843772],[99.8490167,19.3844941],[99.8491507,19.38462],[99.8492351,19.384719],[99.8493553,19.3848269],[99.8495366,19.3850068],[99.8497423,19.3852046],[99.84985,19.3853035],[99.8499721,19.3854385],[99.8501162,19.3855734],[99.8502257,19.3856722],[99.850371,19.3858161],[99.8504793,19.385915],[99.8506361,19.386086],[99.8507688,19.3862029],[99.8508657,19.3862837],[99.8510711,19.3864183],[99.8511917,19.3864991],[99.8513851,19.3865976],[99.8515306,19.3866511],[99.8516756,19.3867227],[99.8518808,19.3868121],[99.8520383,19.3868837],[99.852207,19.3869371],[99.8524134,19.3870265],[99.8525935,19.387107],[99.8527635,19.3871785],[99.8529925,19.3872678],[99.8531863,19.3873392],[99.8534153,19.3874285],[99.8536086,19.3874999],[99.8538024,19.3875712],[99.8540325,19.3876515],[99.8542012,19.3877049],[99.854395,19.3877673],[99.8545524,19.3878207],[99.8547574,19.387883],[99.8548897,19.3879186],[99.8550721,19.3879719],[99.8552044,19.3879984],[99.8553729,19.3880157],[99.8555064,19.3880422],[99.8556517,19.3880505],[99.8558089,19.3880679],[99.8559422,19.3880763],[99.8562315,19.3880749],[99.8564854,19.3880285],[99.8566185,19.3880008],[99.8568602,19.3879002],[99.8570537,19.3877909],[99.8571616,19.3877181],[99.8573078,19.3875638],[99.8574162,19.3873464],[99.8574772,19.3871744],[99.8575369,19.3869844],[99.8576088,19.386731],[99.8576821,19.3865319],[99.8577424,19.3863328],[99.857827,19.3861155]]}},
{"type":"Feature","properties":{"id":1737,"stream_id":4000043.0,"stream":4.0,"str_class":4,"str_order":3,"length_m":1296.876926,"str_cl_e":"Irrigation canal","str_cl_t":"คลองชลประทาน","str_name_e":"Irrigation Canal","str_name_t":"คลองชลประทาน"},"geometry":{"type":"LineString","coordinates":[[99.7675268,19.4314402],[99.7676476,19.4312951],[99.7677688,19.4311229],[99.7678776,19.4309598],[99.7680351,19.4307693],[99.7681314,19.4306243],[99.7681916,19.4305066],[99.7682767,19.4303797],[99.7683736,19.4302076],[99.7684223,19.4300538],[99.7684833,19.4298638],[99.7685554,19.4296285],[99.7686153,19.4294566],[99.7686647,19.4293208],[99.7687615,19.4291397],[99.7688705,19.4290217],[99.7689676,19.4289219],[99.7691241,19.4287857],[99.7692691,19.4287128],[99.7694872,19.4286305],[99.7696804,19.4285755],[99.7698617,19.4285296],[99.77008,19.4284925],[99.770334,19.4284462],[99.7705631,19.4284181],[99.7707082,19.4283904],[99.7708653,19.4283807],[99.7710342,19.4283348],[99.7712523,19.4282435],[99.7713739,19.4281617],[99.7715064,19.4279804],[99.7716393,19.4277539],[99.7717241,19.4275638],[99.7717846,19.4273828],[99.7718576,19.4272198],[99.7719066,19.4270118],[99.7719551,19.4268127],[99.7720022,19.4265686],[99.7720629,19.4263062],[99.7721119,19.4261072],[99.7721482,19.4259625],[99.7721968,19.4257996],[99.7722574,19.4256548],[99.7723424,19.4255008],[99.7724992,19.4252923],[99.772633,19.4251381],[99.7727531,19.4249839],[99.772887,19.4248478],[99.772996,19.4247208],[99.7731524,19.4245575],[99.7732494,19.4244306],[99.7733585,19.4243398],[99.7734556,19.42424],[99.7735759,19.424122],[99.7737092,19.4239858],[99.7738182,19.4238589],[99.7739152,19.4237319],[99.7740479,19.4235868],[99.7741448,19.4234508],[99.7742417,19.4232878],[99.7743266,19.4231157],[99.7743754,19.4229799],[99.7744353,19.422808],[99.7744566,19.4226543]]}},
{"type":"Feature","properties":{"id":1897,"stream_id":4000043.0,"stream":4.0,"str_class":4,"str_order":3,"length_m":872.527221,"str_cl_e":"Irrigation canal","str_cl_t":"คลองชลประทาน","str_name_e":"Irrigation Canal","str_name_t":"คลองชลประทาน"},"geometry":{"type":"LineString","coordinates":[[99.773438,19.4189988],[99.7733745,19.4188002],[99.773326,19.4186107],[99.7732774,19.418394],[99.7732412,19.4181682],[99.7732419,19.4179423],[99.7732418,19.4177887],[99.7733021,19.4175806],[99.7733509,19.4174539],[99.7734234,19.4172909],[99.7735078,19.417155],[99.7736284,19.4169647],[99.7738108,19.4167651],[99.7739311,19.4166562],[99.7740288,19.4165473],[99.7741614,19.4163931],[99.7742821,19.416239],[99.7744147,19.4160667],[99.7744998,19.4159489],[99.7745844,19.4158401],[99.7747298,19.4156226],[99.7748386,19.4154504],[99.774911,19.4152875],[99.7749722,19.4151426],[99.7750089,19.4149708],[99.7750324,19.4147719],[99.7750451,19.414564],[99.7750328,19.4143471],[99.775021,19.4141213],[99.7749974,19.4139135],[99.7749727,19.4137419],[99.7749363,19.4135794],[99.7748877,19.4133899],[99.7748404,19.4132093],[99.7747807,19.4130289],[99.7747324,19.4128845],[99.77466,19.412686],[99.7746117,19.4125416],[99.7745634,19.4124063],[99.7744912,19.4122349],[99.7744179,19.4120996],[99.7743457,19.4119373],[99.7742366,19.4117751]]}},
{"type":"Feature","properties":{"id":1472,"stream_id":4000043.0,"stream":4.0,"str_class":4,"str_order":3,"length_m":485.049056,"str_cl_e":"Irrigation canal","str_cl_t":"คลองชลประทาน","str_name_e":"Irrigation Canal","str_name_t":"คลองชลประทาน"},"geometry":{"type":"LineString","coordinates":[[99.7624131,19.4409231],[99.7626362,19.440624],[99.7626964,19.4403797],[99.7627817,19.4401625],[99.7628786,19.439891],[99.7629507,19.4397642],[99.7630355,19.439565],[99.7631081,19.4394292],[99.7631694,19.4393024],[99.7632534,19.4391755],[99.7633507,19.4389944],[99.7634719,19.4388041],[99.7636044,19.4386138],[99.763702,19.4384868],[99.7638827,19.4382963],[99.7640403,19.438124],[99.7642097,19.4379335],[99.764391,19.437752],[99.7645361,19.4375887],[99.7646451,19.4374708],[99.7647658,19.4373166],[99.764822,19.4372441]]}},
{"type":"Feature","properties":{"id":1458,"stream_id":4000043.0,"stream":4.0,"str_class":4,"str_order":3,"length_m":635.092562,"str_cl_e":"Irrigation canal","str_cl_t":"คลองชลประทาน","str_name_e":"Irrigation Canal","str_name_t":"คลองชลประทาน"},"geometry":{"type":"LineString","coordinates":[[99.8247758,19.4433614],[99.8248259,19.4432527],[99.8249467,19.4429991],[99.8250195,19.4428],[99.8251039,19.4425466],[99.825153,19.4423566],[99.8252129,19.4421846],[99.8252624,19.4419766],[99.8253099,19.4418227],[99.825359,19.4416508],[99.8254311,19.4414336],[99.8254786,19.4412888],[99.8255398,19.4411349],[99.8256002,19.4409539],[99.8256738,19.4407999],[99.8257327,19.4406641],[99.8257818,19.4404922],[99.8258067,19.4403475],[99.8258675,19.4401303],[99.8259028,19.4399314],[99.8259512,19.4397233],[99.8259881,19.4394882],[99.8260115,19.4392893],[99.8260367,19.4390904],[99.8260485,19.4388463],[99.8260606,19.4386475],[99.8260855,19.4383943],[99.8260851,19.4381865],[99.8260851,19.4379606],[99.826085,19.437807]]}},
{"type":"Feature","properties":{"id":2130,"stream_id":4000043.0,"stream":4.0,"str_class":4,"str_order":3,"length_m":853.380156,"str_cl_e":"Irrigation canal","str_cl_t":"คลองชลประทาน","str_name_e":"Irrigation Canal","str_name_t":"คลองชลประทาน"},"geometry":{"type":"LineString","coordinates":[[99.8388641,19.4040331],[99.8389085,19.4039786],[99.8390048,19.4038517],[99.8390649,19.4037339],[99.8391379,19.4035619],[99.8391991,19.4034261],[99.839259,19.4032812],[99.8393437,19.403082],[99.8394161,19.40291],[99.8395008,19.4027198],[99.8395732,19.4025659],[99.8396463,19.4024209],[99.839731,19.4022308],[99.839816,19.4020858],[99.8399122,19.4019317],[99.8400687,19.401687],[99.8402385,19.4014874],[99.8403955,19.4013421],[99.8405164,19.4012331],[99.8406373,19.4011422],[99.8407701,19.4010332],[99.84094,19.4008607],[99.8410969,19.4006973],[99.841242,19.4005611],[99.841387,19.4003887],[99.8415083,19.4002526],[99.8416295,19.4000894],[99.8417258,19.3999624],[99.8418107,19.3997994],[99.8418958,19.3996725],[99.8419552,19.3995457],[99.8420278,19.3994098],[99.8421249,19.3992015],[99.8421736,19.3990657],[99.8421973,19.3989391],[99.8422342,19.3988124],[99.8422459,19.3986497],[99.8423066,19.3984235],[99.8423302,19.3982788],[99.8423545,19.3981341],[99.8423669,19.3979895],[99.842391,19.3978267],[99.8423909,19.3976821],[99.8424036,19.3975013],[99.842403,19.3973839],[99.8423938,19.3973297]]}},
{"type":"Feature","properties":{"id":2515,"stream_id":4000043.0,"stream":4.0,"str_class":4,"str_order":3,"length_m":526.2935,"str_cl_e":"Irrigation canal","str_cl_t":"คลองชลประทาน","str_name_e":"Irrigation Canal","str_name_t":"คลองชลประทาน"},"geometry":{"type":"LineString","coordinates":[[99.7931115,19.3792793],[99.7932319,19.3792064],[99.7935832,19.3789971],[99.7937762,19.3789059],[99.7939823,19.3788056],[99.7941265,19.3787236],[99.7942594,19.3786507],[99.7943808,19.3785147],[99.7945134,19.3783785],[99.7946349,19.3782605],[99.7947439,19.3781697],[99.7949006,19.3780696],[99.7951063,19.3779151],[99.7953359,19.3777604],[99.795553,19.3776059],[99.7956739,19.377515],[99.796508,19.3759751]]}},
{"type":"Feature","properties":{"id":2005,"stream_id":4000043.0,"stream":4.0,"str_class":4,"str_order":3,"length_m":350.833778,"str_cl_e":"Irrigation canal","str_cl_t":"คลองชลประทาน","str_name_e":"Irrigation Canal","str_name_t":"คลองชลประทาน"},"geometry":{"type":"LineString","coordinates":[[99.8359587,19.4052935],[99.8362376,19.4053555],[99.8364061,19.4053637],[99.8365875,19.4053448],[99.8368295,19.4052895],[99.8369626,19.4052527],[99.8371557,19.4051705],[99.8373243,19.4050884],[99.8374947,19.4049972],[99.8376994,19.4048879],[99.8378562,19.4048058],[99.838014,19.4047147],[99.8381344,19.4046328],[99.8382674,19.4045509],[99.8384252,19.4044508],[99.8385342,19.4043599],[99.8386433,19.404269],[99.8387636,19.40416],[99.8388641,19.4040331]]}},
{"type":"Feature","properties":{"id":2722,"stream_id":4000043.0,"stream":4.0,"str_class":4,"str_order":3,"length_m":1415.260243,"str_cl_e":"Irrigation canal","str_cl_t":"คลองชลประทาน","str_name_e":"Irrigation Canal","str_name_t":"คลองชลประทาน"},"geometry":{"type":"LineString","coordinates":[[99.796508,19.3759751],[99.7967379,19.3755403],[99.7967989,19.3753503],[99.7968599,19.3751693],[99.7969206,19.3750425],[99.7969682,19.3749158],[99.7970412,19.3747528],[99.7971021,19.3745537],[99.7971747,19.3744269],[99.7972472,19.374273],[99.7973196,19.37411],[99.7973918,19.3739018],[99.7974282,19.3736938],[99.7974405,19.3735311],[99.7974172,19.3733866],[99.797405,19.3731879],[99.7973563,19.3729712],[99.7973078,19.3727907],[99.7972356,19.3726283],[99.7971632,19.3724299],[99.7970909,19.3722494],[99.7970188,19.3720961],[99.7969226,19.3719068],[99.7968857,19.3717714],[99.7968499,19.371627],[99.7968498,19.3714914],[99.7968615,19.3713197],[99.7968621,19.3710757],[99.7968738,19.370931],[99.7969705,19.3706234],[99.7970192,19.3704786],[99.7970791,19.3702976],[99.7971403,19.3701618],[99.7972487,19.3699354],[99.7973099,19.3697905],[99.797358,19.3696547],[99.7974179,19.3694918],[99.7974913,19.3692927],[99.7975518,19.3691207],[99.7976129,19.3689668],[99.7976615,19.3687859],[99.797709,19.3686592],[99.7977571,19.3685053],[99.797817,19.3683515],[99.7978663,19.3682067],[99.7979026,19.3680709],[99.7979513,19.3679261],[99.7980114,19.3676819],[99.7980487,19.3675371],[99.7980962,19.3673833],[99.7981329,19.3672205],[99.7981815,19.3670667],[99.7982289,19.3668857],[99.7982777,19.3666505],[99.7983388,19.3664876],[99.798411,19.3662795],[99.7984722,19.3661436],[99.7985322,19.3659988],[99.7985928,19.3658449],[99.798713,19.3656094],[99.7988225,19.365374],[99.7988825,19.3652291],[99.7989319,19.3651024],[99.7990283,19.364849],[99.7991009,19.3646137],[99.7991494,19.3644327],[99.7991969,19.364288],[99.7992576,19.3640347],[99.7993054,19.3638356]]}},
{"type":"Feature","properties":{"id":2339,"stream_id":4000043.0,"stream":4.0,"str_class":4,"str_order":3,"length_m":118.351436,"str_cl_e":"Irrigation canal","str_cl_t":"คลองชลประทาน","str_name_e":"Irrigation Canal","str_name_t":"คลองชลประทาน"},"geometry":{"type":"LineString","coordinates":[[99.857827,19.3861155],[99.8581859,19.3851017]]}},
{"type":"Feature","properties":{"id":2176,"stream_id":4000043.0,"stream":4.0,"str_class":4,"str_order":3,"length_m":2419.364267,"str_cl_e":"Irrigation canal","str_cl_t":"คลองชลประทาน","str_name_e":"Irrigation Canal","str_name_t":"คลองชลประทาน"},"geometry":{"type":"LineString","coordinates":[[99.7742366,19.4117751],[99.774128,19.4116039],[99.7740195,19.4114326],[99.773899,19.4112614],[99.7738144,19.4111172],[99.7737047,19.410955],[99.7735968,19.4107838],[99.7735123,19.4106757],[99.7734026,19.4105135],[99.7733187,19.4103964],[99.7732102,19.4102252],[99.7731381,19.4100899],[99.7730773,19.4099456],[99.77303,19.409756],[99.7729932,19.4095393],[99.7729694,19.4092864],[99.7729696,19.4090605],[99.772957,19.4089159],[99.7729575,19.4087804],[99.7729817,19.4084911],[99.7729948,19.4083555],[99.7730192,19.4080933],[99.7730666,19.4079214],[99.7731159,19.4077766],[99.7732008,19.4076046],[99.7732846,19.4074596],[99.7733822,19.4073237],[99.7734911,19.4071967],[99.7735989,19.4070878],[99.7737193,19.4069788],[99.7738532,19.4068517],[99.7739983,19.4066975],[99.7741678,19.4065432],[99.7743255,19.4064069],[99.7744458,19.406307],[99.7745912,19.406198],[99.7747127,19.406089],[99.7748206,19.4059982],[99.7749421,19.4058983],[99.7750625,19.4057983],[99.7752077,19.4056712],[99.7753292,19.4055622],[99.7754976,19.4054169],[99.7756191,19.4052989],[99.7757518,19.4051719],[99.7758483,19.4050721],[99.775981,19.4049269],[99.7761149,19.4047998],[99.7762114,19.404691],[99.7763327,19.4045459],[99.7764405,19.4044279],[99.7765744,19.4043008],[99.7767073,19.4041918],[99.7768403,19.404128],[99.777034,19.4040549],[99.7772145,19.4039637],[99.7774086,19.4038545],[99.7775541,19.4037816],[99.777687,19.4036816],[99.777808,19.4035907],[99.7779645,19.4034545],[99.7781109,19.4033273],[99.7782674,19.4032002],[99.7784002,19.4030821],[99.7785697,19.4029278],[99.7787149,19.4027916],[99.7788364,19.4026917],[99.7789929,19.4025464],[99.7791738,19.4024282],[99.7793201,19.4022739],[99.7794404,19.4021469],[99.779538,19.402038],[99.7796459,19.4019291],[99.7797548,19.4018021],[99.779875,19.4016751],[99.7799727,19.4015663],[99.7800928,19.4014121],[99.7802514,19.4012307],[99.7804078,19.4010674],[99.7805658,19.4008769],[99.780686,19.4007499],[99.7807712,19.4006321],[99.7808677,19.4005232],[99.7809878,19.4003691],[99.7811819,19.4001423],[99.7813394,19.3999609],[99.7814371,19.399843],[99.7816175,19.3996163],[99.7817635,19.3993988],[99.7818587,19.3992719],[99.7819438,19.399145],[99.7820899,19.3989456],[99.7822348,19.3987461],[99.7823927,19.3985376],[99.7825375,19.3983291],[99.7826582,19.398166],[99.7827314,19.3980391],[99.7828277,19.3978941],[99.7829487,19.3976858],[99.7830575,19.3975407],[99.7831302,19.3974229],[99.7832627,19.3972507],[99.7833602,19.3971057],[99.783469,19.3969516],[99.7835779,19.3968155],[99.7836628,19.3966616],[99.7837466,19.3965076],[99.7838677,19.3963173],[99.783929,19.3961995],[99.784049,19.3960093],[99.7841827,19.395837],[99.7842791,19.3957101],[99.7844005,19.395583],[99.7845329,19.3953927],[99.7846784,19.3952113],[99.7847624,19.3950935],[99.7848709,19.3948852],[99.784956,19.3947492],[99.7850119,19.3946225]]}},
{"type":"Feature","properties":{"id":2215,"stream_id":4000043.0,"stream":4.0,"str_class":4,"str_order":3,"length_m":260.703924,"str_cl_e":"Irrigation canal","str_cl_t":"คลองชลประทาน","str_name_e":"Irrigation Canal","str_name_t":"คลองชลประทาน"},"geometry":{"type":"LineString","coordinates":[[99.7850119,19.3946225],[99.7850408,19.3945591],[99.7851255,19.3943509],[99.7851866,19.394188],[99.7852357,19.394007],[99.7852592,19.3938172],[99.7852597,19.3936726],[99.7852353,19.3935371],[99.7852233,19.3933926],[99.7851752,19.3931759],[99.7851506,19.3930134],[99.785127,19.3928056],[99.7850908,19.3925799],[99.7850241,19.3923249]]}},
{"type":"Feature","properties":{"id":2453,"stream_id":4000043.0,"stream":4.0,"str_class":4,"str_order":3,"length_m":883.807901,"str_cl_e":"Irrigation canal","str_cl_t":"คลองชลประทาน","str_name_e":"Irrigation Canal","str_name_t":"คลองชลประทาน"},"geometry":{"type":"LineString","coordinates":[[99.7874107,19.3843736],[99.7875859,19.3843096],[99.7877788,19.3842003],[99.78796,19.3841272],[99.7881531,19.3840541],[99.7883224,19.3839901],[99.7885036,19.383917],[99.7887454,19.3838346],[99.788891,19.3837888],[99.7891086,19.3837337],[99.7892903,19.3836606],[99.7894591,19.3836147],[99.7896524,19.3835777],[99.7897968,19.3835319],[99.7899424,19.3834861],[99.7901004,19.3834221],[99.7902811,19.3833671],[99.7904622,19.383285],[99.7906314,19.3831939],[99.7907517,19.383103],[99.7909095,19.3829848],[99.7910546,19.3828396],[99.7911522,19.3827217],[99.7912724,19.3825947],[99.7913689,19.3824768],[99.7916955,19.3818338],[99.7916966,19.3816892],[99.7917436,19.381454],[99.7918293,19.3811916],[99.7919501,19.3809471],[99.7920348,19.3807479],[99.7920949,19.3806211],[99.7921797,19.38044],[99.7922285,19.3803043],[99.7923493,19.3800507],[99.7924342,19.3798877],[99.7925186,19.3797518],[99.7926151,19.3796519],[99.7927367,19.379561],[99.79299,19.3793792],[99.7931115,19.3792793]]}},
{"type":"Feature","properties":{"id":2817,"stream_id":4000043.0,"stream":4.0,"str_class":4,"str_order":3,"length_m":598.512906,"str_cl_e":"Irrigation canal","str_cl_t":"คลองชลประทาน","str_name_e":"Irrigation Canal","str_name_t":"คลองชลประทาน"},"geometry":{"type":"LineString","coordinates":[[99.7993054,19.3638356],[99.7993183,19.3637904],[99.7993438,19.3636547],[99.799392,19.3634105],[99.7994278,19.3631845],[99.7994406,19.3630127],[99.7994518,19.362859],[99.7994771,19.3626782],[99.7994763,19.3625155],[99.7995012,19.3623708],[99.7995247,19.362181],[99.7995613,19.3618826],[99.7995606,19.3617471],[99.799586,19.3615752],[99.7996103,19.3613131],[99.7996339,19.3611503],[99.7996469,19.3610147],[99.7996948,19.3607072],[99.7997071,19.3605536],[99.7997313,19.3603727],[99.7997555,19.360219],[99.7997804,19.3600743],[99.7998039,19.3598935],[99.7998043,19.3597308],[99.7998281,19.3594958],[99.7998528,19.3592968],[99.7998647,19.3590618],[99.7999133,19.358899],[99.7999262,19.3587453],[99.7999616,19.3585463],[99.7999755,19.358474]]}},
{"type":"Feature","properties":{"id":1542,"stream_id":4000043.0,"stream":4.0,"str_class":4,"str_order":3,"length_m":707.311547,"str_cl_e":"Irrigation canal","str_cl_t":"คลองชลประทาน","str_name_e":"Irrigation Canal","str_name_t":"คลองชลประทาน"},"geometry":{"type":"LineString","coordinates":[[99.764822,19.4372441],[99.7648995,19.4371353],[99.7649832,19.4369633],[99.7651057,19.4367911],[99.7652019,19.4366099],[99.7652859,19.4364921],[99.7653832,19.436311],[99.7654796,19.4361569],[99.7655528,19.4360211],[99.7656014,19.4358582],[99.7656748,19.4356501],[99.7657595,19.4354238],[99.7658556,19.4352155],[99.7658919,19.4350798],[99.7659766,19.4348716],[99.7660134,19.4347269],[99.7660495,19.434555],[99.7660982,19.4343922],[99.7661589,19.4341389],[99.7662436,19.4339217],[99.7663283,19.4336954],[99.7663888,19.4335234],[99.7664854,19.4332971],[99.7665462,19.4331794],[99.7666309,19.4329712],[99.7666797,19.4328354],[99.7667882,19.4326091],[99.7668618,19.432437],[99.7669332,19.4323012],[99.7670183,19.4321743],[99.767127,19.4319931],[99.7672731,19.4317847],[99.7674056,19.4316124],[99.7675268,19.4314402]]}},
{"type":"Feature","properties":{"id":2252,"stream_id":4000043.0,"stream":4.0,"str_class":4,"str_order":3,"length_m":217.869664,"str_cl_e":"Irrigation canal","str_cl_t":"คลองชลประทาน","str_name_e":"Irrigation Canal","str_name_t":"คลองชลประทาน"},"geometry":{"type":"LineString","coordinates":[[99.7850241,19.3923249],[99.7850304,19.3921464],[99.7850069,19.3919748],[99.7849821,19.391767],[99.7849582,19.3916045],[99.7849224,19.3914691],[99.7848978,19.3913156],[99.7848506,19.3911441],[99.7848134,19.3909545],[99.7848016,19.3907286],[99.7847896,19.3905841],[99.7847898,19.3903762]]}},
{"type":"Feature","properties":{"id":1340,"stream_id":4000043.0,"stream":4.0,"str_class":4,"str_order":3,"length_m":44.428572,"str_cl_e":"Irrigation canal","str_cl_t":"คลองชลประทาน","str_name_e":"Irrigation Canal","str_name_t":"คลองชลประทาน"},"geometry":{"type":"LineString","coordinates":[[99.8245937,19.4437236],[99.824645,19.443615],[99.8247411,19.4434338],[99.8247758,19.4433614]]}},
{"type":"Feature","properties":{"id":2859,"stream_id":4000043.0,"stream":4.0,"str_class":4,"str_order":3,"length_m":275.496084,"str_cl_e":"Irrigation canal","str_cl_t":"คลองชลประทาน","str_name_e":"Irrigation Canal","str_name_t":"คลองชลประทาน"},"geometry":{"type":"LineString","coordinates":[[99.7999755,19.358474],[99.7999865,19.3584107],[99.8000232,19.3581304],[99.8000464,19.3578772],[99.800059,19.3576603],[99.8000708,19.3575157],[99.8000839,19.3572716],[99.8000949,19.3570818],[99.8001075,19.3568739],[99.8001311,19.3567111],[99.8001439,19.3565303],[99.8001676,19.3563676],[99.800193,19.3562138],[99.8002042,19.3560782],[99.8002175,19.3559969]]}},
{"type":"Feature","properties":{"id":1152,"stream_id":4000060.0,"stream":6.0,"str_class":4,"str_order":0,"length_m":618.862137,"str_cl_e":"Irrigation canal","str_cl_t":"คลองชลประทาน","str_name_e":"Irrigation  Canal","str_name_t":"คลองส่งน้ำชลประทาน"},"geometry":{"type":"LineString","coordinates":[[100.1203521,19.4632373],[100.1200004,19.4645678],[100.1201014,19.4687869]]}},
{"type":"Feature","properties":{"id":1148,"stream_id":4000060.0,"stream":6.0,"str_class":4,"str_order":0,"length_m":1464.679443,"str_cl_e":"Irrigation canal","str_cl_t":"คลองชลประทาน","str_name_e":"Irrigation  Canal","str_name_t":"คลองส่งน้ำชลประทาน"},"geometry":{"type":"LineString","coordinates":[[100.1300475,19.4729268],[100.1286163,19.4695292],[100.1279413,19.4687835],[100.1269004,19.4679857],[100.1255508,19.4667291],[100.1242058,19.46587],[100.1216341,19.4638619],[100.1209004,19.4634056]]}},
{"type":"Feature","properties":{"id":1248,"stream_id":4000060.0,"stream":6.0,"str_class":4,"str_order":0,"length_m":1612.552906,"str_cl_e":"Irrigation canal","str_cl_t":"คลองชลประทาน","str_name_e":"Irrigation  Canal","str_name_t":"คลองส่งน้ำชลประทาน"},"geometry":{"type":"LineString","coordinates":[[100.1202878,19.4628943],[100.1204555,19.4613933],[100.1203943,19.4613305],[100.1202618,19.4602379],[100.1202515,19.4590814],[100.1204241,19.4582129],[100.1204199,19.4576888],[100.1205969,19.4571095],[100.1216727,19.4551962],[100.1219613,19.4536945],[100.1221984,19.4531147],[100.1223075,19.45184],[100.1224854,19.4513781],[100.1227166,19.4501116],[100.1231299,19.448835]]}},
{"type":"Feature","properties":{"id":1151,"stream_id":4000061.0,"stream":6.0,"str_class":4,"str_order":1,"length_m":60.498483,"str_cl_e":"Irrigation canal","str_cl_t":"คลองชลประทาน","str_name_e":"Irrigation  Canal","str_name_t":"คลองส่งน้ำชลประทาน"},"geometry":{"type":"LineString","coordinates":[[100.1209004,19.4634056],[100.1203521,19.4632373]]}},
{"type":"Feature","properties":{"id":1155,"stream_id":4000061.0,"stream":6.0,"str_class":4,"str_order":1,"length_m":38.551913,"str_cl_e":"Irrigation canal","str_cl_t":"คลองชลประทาน","str_name_e":"Irrigation  Canal","str_name_t":"คลองส่งน้ำชลประทาน"},"geometry":{"type":"LineString","coordinates":[[100.1202878,19.4628943],[100.1203521,19.4632373]]}},
{"type":"Feature","properties":{"id":1083,"stream_id":4000061.0,"stream":6.0,"str_class":4,"str_order":1,"length_m":1630.266505,"str_cl_e":"Irrigation canal","str_cl_t":"คลองชลประทาน","str_name_e":"Irrigation  Canal","str_name_t":"คลองส่งน้ำชลประทาน"},"geometry":{"type":"LineString","coordinates":[[100.0836057,19.4715298],[100.0840347,19.4719339],[100.0849604,19.4734283],[100.0853481,19.4758476],[100.0857286,19.4774628],[100.0857323,19.4779236],[100.0872648,19.4856492]]}},
{"type":"Feature","properties":{"id":1053,"stream_id":4000062.0,"stream":6.0,"str_class":4,"str_order":2,"length_m":2200.298818,"str_cl_e":"Irrigation canal","str_cl_t":"คลองชลประทาน","str_name_e":"Irrigation  Canal","str_name_t":"คลองส่งน้ำชลประทาน"},"geometry":{"type":"LineString","coordinates":[[100.1765149,19.4890581],[100.1757139,19.4879699],[100.1749663,19.4861225],[100.1742228,19.4847448],[100.1733626,19.4837113],[100.1719998,19.481172],[100.1710773,19.4800847],[100.1684396,19.4776169],[100.1673372,19.4767565],[100.1670939,19.4767039],[100.1645811,19.474696],[100.1640932,19.4744191],[100.1635479,19.4739392]]}},
{"type":"Feature","properties":{"id":1095,"stream_id":4000062.0,"stream":6.0,"str_class":4,"str_order":2,"length_m":657.673163,"str_cl_e":"Irrigation canal","str_cl_t":"คลองชลประทาน","str_name_e":"Irrigation  Canal","str_name_t":"คลองส่งน้ำชลประทาน"},"geometry":{"type":"LineString","coordinates":[[100.1635479,19.4739392],[100.162008,19.4725801],[100.1602234,19.4702242],[100.1600361,19.4697646],[100.1600882,19.469213]]}},
{"type":"Feature","properties":{"id":1223,"stream_id":4000062.0,"stream":6.0,"str_class":4,"str_order":2,"length_m":3131.965476,"str_cl_e":"Irrigation canal","str_cl_t":"คลองชลประทาน","str_name_e":"Irrigation  Canal","str_name_t":"คลองส่งน้ำชลประทาน"},"geometry":{"type":"LineString","coordinates":[[100.0857423,19.4533186],[100.0857416,19.4532101],[100.084763,19.4525202],[100.0839101,19.4522994],[100.0834247,19.4523565],[100.0820968,19.4534036],[100.0815511,19.4533526],[100.0803287,19.4526099],[100.0794764,19.4525608],[100.0791746,19.452671],[100.0786925,19.4531438],[100.078635,19.4535417],[100.0788838,19.4540643],[100.0796792,19.4546921],[100.0799263,19.4551515],[100.0799906,19.4555035],[100.0798757,19.4561367],[100.0791572,19.4572343],[100.0791616,19.4578126],[100.0792872,19.4581643],[100.0792932,19.4587967],[100.0795408,19.4594278],[100.0805197,19.4600545],[100.0810724,19.4606295],[100.0810245,19.4620213],[100.0815219,19.4632292],[100.0822031,19.4644901],[100.0827007,19.4658155],[100.0830714,19.4663915],[100.0831356,19.4667345],[100.0835692,19.4676626],[100.0836366,19.4682948],[100.0839509,19.4694495],[100.0838987,19.4703715],[100.0836037,19.4712407],[100.0836057,19.4715298]]}},
{"type":"Feature","properties":{"id":7338,"stream_id":4019101.0,"stream":1910.0,"str_class":4,"str_order":1,"length_m":202.624313,"str_cl_e":"Irrigation canal","str_cl_t":"คลองชลประทาน","str_name_e":null,"str_name_t":null},"geometry":{"type":"LineString","coordinates":[[100.3861008,19.1039709],[100.3859089,19.1039724],[100.3857237,19.1039828],[100.3855675,19.1040562],[100.3854089,19.1041388],[100.3852281,19.104113],[100.385059,19.1040601],[100.3848834,19.1040253],[100.3847463,19.1038998],[100.38465,19.1037469],[100.3843984,19.1036404]]}},
{"type":"Feature","properties":{"id":7390,"stream_id":4019113.0,"stream":1911.0,"str_class":4,"str_order":3,"length_m":190.338047,"str_cl_e":"Irrigation canal","str_cl_t":"คลองชลประทาน","str_name_e":null,"str_name_t":null},"geometry":{"type":"LineString","coordinates":[[100.3972455,19.1014403],[100.3972401,19.1012213],[100.3972386,19.1010496],[100.3972811,19.1008776],[100.397285,19.1007059],[100.3972864,19.1005161],[100.3972861,19.1003354],[100.3972828,19.1001547],[100.3972771,19.0999741],[100.3971896,19.0997398]]}},
{"type":"Feature","properties":{"id":7366,"stream_id":4019113.0,"stream":1911.0,"str_class":4,"str_order":3,"length_m":1419.376696,"str_cl_e":"Irrigation canal","str_cl_t":"คลองชลประทาน","str_name_e":null,"str_name_t":null},"geometry":{"type":"LineString","coordinates":[[100.3893914,19.1104517],[100.3894905,19.1103064],[100.3896297,19.1101788],[100.3897738,19.1100783],[100.3899197,19.1099778],[100.3900807,19.1099134],[100.3902351,19.1098309],[100.390367,19.1096944],[100.3905257,19.1096299],[100.3906649,19.1095114],[100.3908229,19.1094379],[100.3909598,19.1093194],[100.3911069,19.109228],[100.3912389,19.1090914],[100.3913781,19.1089729],[100.3915343,19.1088995],[100.3916904,19.108817],[100.3918588,19.1087705],[100.3920035,19.10867],[100.3921608,19.1085875],[100.3923201,19.1085231],[100.3924641,19.1084135],[100.39261,19.108313],[100.3927668,19.1082396],[100.3929224,19.1081571],[100.3930592,19.1080386],[100.3932027,19.1079381],[100.3933504,19.1078376],[100.3934823,19.1077011],[100.3936403,19.1076276],[100.393785,19.1075271],[100.3939303,19.1074266],[100.3940877,19.1073531],[100.3942396,19.1072616],[100.3943922,19.1071792],[100.3945357,19.1070696],[100.3946834,19.1069782],[100.3948274,19.1068687],[100.3949739,19.1067682],[100.3951198,19.1066677],[100.3952518,19.1065402],[100.3953989,19.1064397],[100.3955302,19.1063031],[100.3956786,19.1062117],[100.3958348,19.1061382],[100.3959909,19.1060557],[100.3961374,19.1059552],[100.3962682,19.1058277],[100.3964171,19.1057272],[100.3965479,19.1055997],[100.396681,19.1054631],[100.3968397,19.1053987],[100.3969603,19.1052622],[100.3969933,19.1050903],[100.3969918,19.1049096],[100.3969885,19.1047289],[100.3970317,19.104566],[100.3970308,19.1043853],[100.3970275,19.1042046],[100.397023,19.1040239],[100.3970191,19.1038432],[100.3970182,19.1036625],[100.3970447,19.1034906],[100.3970563,19.1033189],[100.3971007,19.1031559],[100.3970974,19.1029752],[100.397091,19.1027855],[100.3971342,19.1026226],[100.3971565,19.1024507],[100.3971693,19.1022789],[100.3972137,19.102116],[100.3972092,19.1019353],[100.3972512,19.1017723],[100.3972491,19.1015916],[100.3972455,19.1014403]]}},
{"type":"Feature","properties":{"id":7515,"stream_id":4019123.0,"stream":1912.0,"str_class":4,"str_order":3,"length_m":286.930731,"str_cl_e":"Irrigation canal","str_cl_t":"คลองชลประทาน","str_name_e":null,"str_name_t":null},"geometry":{"type":"LineString","coordinates":[[100.394281,19.0906451],[100.3942444,19.090808],[100.3941881,19.090971],[100.3941235,19.0911251],[100.3940624,19.0912792],[100.3939847,19.0914334],[100.3939057,19.0915785],[100.3938881,19.0917504],[100.3938051,19.0919046],[100.3937398,19.0920587],[100.3936853,19.0922127],[100.3936487,19.0923847],[100.3936079,19.0925476],[100.3935683,19.0927105],[100.3935316,19.0928735],[100.3934932,19.0931087]]}},
{"type":"Feature","properties":{"id":7488,"stream_id":4019133.0,"stream":1913.0,"str_class":4,"str_order":3,"length_m":757.698937,"str_cl_e":"Irrigation canal","str_cl_t":"คลองชลประทาน","str_name_e":null,"str_name_t":null},"geometry":{"type":"LineString","coordinates":[[100.3980186,19.0965192],[100.3980158,19.0963362],[100.3979705,19.0961739],[100.3978772,19.0960301],[100.3977261,19.0959318],[100.3975931,19.0957973],[100.397431,19.0957353],[100.3972614,19.0956914],[100.3970992,19.0956203],[100.3969073,19.0956218],[100.3967366,19.0956683],[100.3965466,19.0956697],[100.3963751,19.0956258],[100.3961967,19.0956001],[100.3960235,19.0955562],[100.3958654,19.0954851],[100.3957131,19.0953869],[100.3956139,19.0952431],[100.3954605,19.0951539],[100.3953245,19.0950194],[100.3952254,19.0948846],[100.3950865,19.0947591],[100.3949151,19.0947153],[100.3947565,19.0946442],[100.3945961,19.0945731],[100.3944584,19.0944477],[100.3943037,19.0943494],[100.3941631,19.094224],[100.3940858,19.094071],[100.394105,19.0938811],[100.3942042,19.0937358],[100.3943076,19.0935995],[100.3944588,19.0934989],[100.394589,19.0933714],[100.3946637,19.0932173],[100.3947957,19.0930807],[100.3949337,19.0929622],[100.3950832,19.0928707],[100.3952266,19.0927612],[100.3952138,19.0925806],[100.395198,19.0925356]]}},
{"type":"Feature","properties":{"id":7429,"stream_id":4019133.0,"stream":1913.0,"str_class":4,"str_order":3,"length_m":378.548725,"str_cl_e":"Irrigation canal","str_cl_t":"คลองชลประทาน","str_name_e":null,"str_name_t":null},"geometry":{"type":"LineString","coordinates":[[100.3971896,19.0997398],[100.3972084,19.099568],[100.3972265,19.0993962],[100.3971824,19.0992339],[100.397188,19.0990531],[100.3971391,19.0988909],[100.3971954,19.0987278],[100.3973005,19.0985824],[100.3973461,19.0984285],[100.3974512,19.0982831],[100.3975582,19.0981468],[100.3976329,19.0979926],[100.3977005,19.0978385],[100.3977581,19.0976845],[100.3977744,19.0975127],[100.3978539,19.0973585],[100.3978965,19.0971955],[100.397892,19.0970148],[100.3979352,19.0968518],[100.3979737,19.0966889],[100.3980186,19.0965192]]}},
{"type":"Feature","properties":{"id":7504,"stream_id":4019143.0,"stream":1914.0,"str_class":4,"str_order":3,"length_m":184.126497,"str_cl_e":"Irrigation canal","str_cl_t":"คลองชลประทาน","str_name_e":null,"str_name_t":null},"geometry":{"type":"LineString","coordinates":[[100.395198,19.0925356],[100.395165,19.0924274],[100.3951066,19.0922652],[100.3950595,19.0921029],[100.3950634,19.0919222],[100.3950168,19.0917599],[100.3949987,19.0915793],[100.394967,19.0914079],[100.394972,19.0912271],[100.3950525,19.0909103]]}},
{"type":"Feature","properties":{"id":7489,"stream_id":4019153.0,"stream":1915.0,"str_class":4,"str_order":3,"length_m":191.060985,"str_cl_e":"Irrigation canal","str_cl_t":"คลองชลประทาน","str_name_e":null,"str_name_t":null},"geometry":{"type":"LineString","coordinates":[[100.3934932,19.0931087],[100.3936675,19.0930712],[100.3938201,19.0929887],[100.3939781,19.0929153],[100.3941343,19.0928418],[100.3943056,19.0927953],[100.3944745,19.0927489],[100.395198,19.0925356]]}},
{"type":"Feature","properties":{"id":7391,"stream_id":4019651.0,"stream":1965.0,"str_class":4,"str_order":1,"length_m":1378.000108,"str_cl_e":"Irrigation canal","str_cl_t":"คลองชลประทาน","str_name_e":null,"str_name_t":null},"geometry":{"type":"LineString","coordinates":[[100.3971896,19.0997398],[100.3969989,19.0997413],[100.3968434,19.0998238],[100.3966866,19.0998972],[100.3965322,19.0999797],[100.3963766,19.1000532],[100.3962199,19.1001357],[100.3960764,19.1002362],[100.3959305,19.1003367],[100.3957858,19.1004372],[100.3956163,19.1004836],[100.3954618,19.1005571],[100.3952923,19.1006035],[100.3951465,19.100704],[100.3950024,19.1008045],[100.3948692,19.1009411],[100.3947228,19.1010416],[100.3945775,19.1011421],[100.3944328,19.1012425],[100.3942869,19.101343],[100.3941289,19.1014165],[100.3940285,19.1015618],[100.3938803,19.1016624],[100.3937211,19.1017358],[100.3935782,19.1018453],[100.3934438,19.1019638],[100.3932943,19.1020643],[100.3931582,19.1021919],[100.3930578,19.1023372],[100.3929824,19.1024823],[100.3929053,19.1026365],[100.3928591,19.1027995],[100.3928094,19.1029625],[100.3927668,19.1031255],[100.3926866,19.1032707],[100.3926482,19.1034336],[100.3926116,19.1036055],[100.3925726,19.1037685],[100.3925383,19.1039314],[100.3924546,19.1040856],[100.392356,19.1042309],[100.3922156,19.1043495],[100.3920625,19.1044319],[100.3919015,19.1045054],[100.3917429,19.1045789],[100.3915988,19.1046794],[100.3914523,19.1047799],[100.3913058,19.1048804],[100.3911611,19.1049809],[100.3910031,19.1050543],[100.3908312,19.1051008],[100.3906394,19.1051023],[100.3904493,19.1051037],[100.3902766,19.1050598],[100.3901022,19.105016],[100.3899273,19.1049902],[100.3897728,19.10491],[100.3895955,19.1048752],[100.3893854,19.1048316],[100.3890889,19.1047526],[100.3889279,19.1046815],[100.3887728,19.1046013],[100.3886148,19.1045302],[100.3884416,19.1044954],[100.3882661,19.1044606],[100.3881034,19.1043986],[100.3879354,19.1043456],[100.387775,19.1042745],[100.3876053,19.1042306],[100.3874473,19.1041596],[100.3872904,19.1040794],[100.3871027,19.1040808],[100.3869102,19.1040823]]}},
{"type":"Feature","properties":{"id":5903,"stream_id":4050041.0,"stream":5004.0,"str_class":4,"str_order":1,"length_m":2034.308247,"str_cl_e":"Irrigation canal","str_cl_t":"คลองชลประทาน","str_name_e":"Irrigation Canal","str_name_t":"คลองชลประทาน"},"geometry":{"type":"LineString","coordinates":[[99.8012435,19.1844388],[99.8012934,19.1845561],[99.8013409,19.1846733],[99.8013985,19.1847906],[99.8014733,19.1848896],[99.8015612,19.1849887],[99.8016567,19.1850696],[99.8017599,19.1851505],[99.8018696,19.1852223],[99.8019847,19.185285],[99.8021032,19.1853387],[99.8022224,19.1854015],[99.8023404,19.1854552],[99.8024548,19.1855179],[99.8025628,19.1855898],[99.8026678,19.1856706],[99.8027686,19.1857515],[99.8028701,19.1858324],[99.8029691,19.1859133],[99.8030671,19.1860032],[99.8031649,19.1860841],[99.8032629,19.1861741],[99.8033602,19.186255],[99.8034587,19.1863449],[99.8035589,19.1864258],[99.8036592,19.1865067],[99.8037618,19.1865876],[99.8038668,19.1866685],[99.8039718,19.1867403],[99.8040792,19.1868212],[99.804186,19.186893],[99.8042939,19.1869648],[99.8044024,19.1870366],[99.8045134,19.1871084],[99.8046237,19.1871802],[99.8047363,19.187243],[99.8048508,19.1873148],[99.8049664,19.1873685],[99.8050844,19.1874313],[99.8052065,19.1874849],[99.8053292,19.1875296],[99.805456,19.1875652],[99.8055846,19.1876008],[99.8057166,19.1876092],[99.8058491,19.1876086],[99.8059822,19.187599],[99.8061142,19.1875894],[99.8062473,19.1875798],[99.8063775,19.1875973],[99.8065038,19.1876419],[99.8066277,19.1876865],[99.8067585,19.187704],[99.8068917,19.1877035],[99.8070249,19.1877119],[99.8071575,19.1877204],[99.8072906,19.1877198],[99.8074238,19.1877192],[99.8075557,19.1877096],[99.8076883,19.187709],[99.8078214,19.1876994],[99.8079532,19.1876807],[99.8080736,19.187626],[99.8081797,19.1875532],[99.8082881,19.1874804],[99.8084073,19.1874257],[99.808538,19.187398],[99.8086687,19.1873793],[99.8088011,19.1873607],[99.8089331,19.1873511],[99.8090644,19.1873324],[99.8091963,19.1873228],[99.8093287,19.1873041],[99.80946,19.1872855],[99.8095907,19.1872668],[99.8097202,19.1872392],[99.8098226,19.1871574],[99.8099275,19.1870846],[99.8100509,19.1870389],[99.8101815,19.1870112],[99.8103116,19.1869835],[99.8104404,19.1869558],[99.8105711,19.1869372],[99.8107018,19.1869095],[99.8108342,19.1868908],[99.8109631,19.1868632],[99.8110944,19.1868445],[99.8112245,19.1868259],[99.8113551,19.1867982],[99.8114852,19.1867705],[99.811614,19.1867428],[99.8117422,19.1867061],[99.8118681,19.1866694],[99.8119885,19.1866146],[99.8121023,19.1865509],[99.8122119,19.1864781],[99.8123233,19.1864053],[99.812439,19.1863506],[99.8125582,19.1862958],[99.812681,19.1862411],[99.8128044,19.1861953],[99.8129332,19.1861676],[99.8130657,19.186149],[99.8131977,19.1861484],[99.8133302,19.1861478],[99.8134622,19.1861563],[99.8135943,19.1861737],[99.8137269,19.1861912],[99.8138584,19.1861997],[99.8139904,19.1862172],[99.8141225,19.1862347],[99.814255,19.1862341],[99.8143882,19.1862425],[99.8145201,19.1862329],[99.8146357,19.1861691],[99.8147442,19.1860964],[99.8148676,19.1860506],[99.8149958,19.1860229],[99.8151259,19.1859953],[99.8152571,19.1859676],[99.8153872,19.1859489],[99.8155191,19.1859393],[99.8156522,19.1859297],[99.8157831,19.1859381],[99.8158964,19.1860099],[99.8160025,19.1860817],[99.8161328,19.1861083],[99.8162648,19.1861167],[99.8163974,19.1861071],[99.8165262,19.1860704],[99.8166514,19.1860337],[99.8167748,19.1859879],[99.8168964,19.1859332],[99.8170181,19.1858874],[99.8171427,19.1858417],[99.8172697,19.185805],[99.8173998,19.1857863],[99.8175323,19.1857677],[99.8176654,19.185758],[99.8177973,19.1857574],[99.8179292,19.1857478],[99.8180624,19.1857472],[99.8181956,19.1857557],[99.8183287,19.1857551],[99.8184613,19.1857635],[99.8185945,19.1857629],[99.818815,19.1857619]]}}
]
}
