{
"type": "FeatureCollection",
"name": "irrigation_canal",
"crs": { "type": "name", "properties": { "name": "urn:ogc:def:crs:OGC:1.3:CRS84" } },
"features": [
{"type":"Feature","properties":{"id":1767,"stream_id":4000043.0,"stream":4.0,"str_class":4,"str_order":3,"length_m":237.772421,"str_cl_e":"Irrigation canal","str_cl_t":"คลองชลประทาน","str_name_e":"Irrigation Canal","str_name_t":"คลองชลประทาน"},"geometry":{"type":"MultiLineString","coordinates":[[[99.77445658585907,19.422654272647865],[99.774496676198112,19.422446258951087],[99.774532513791954,19.422220190099537],[99.774532933707576,19.422057528774836],[99.774532163052953,19.421894872524728],[99.774520720048898,19.421741298426664],[99.774496180764302,19.421587780173635],[99.7744352006535,19.421407307378992],[99.774362824655483,19.421208809860822],[99.774303078216235,19.421037368388003],[99.774242184135673,19.420874968423366],[99.774193962306171,19.420748660986007],[99.774114571886926,19.420577303165597]]]}},
{"type":"Feature","properties":{"id":2360,"stream_id":4000043.0,"stream":4.0,"str_class":4,"str_order":3,"length_m":737.624101,"str_cl_e":"Irrigation canal","str_cl_t":"คลองชลประทาน","str_name_e":"Irrigation Canal","str_name_t":"คลองชลประทาน"},"geometry":{"type":"MultiLineString","coordinates":[[[99.784789778649042,19.390376222852506],[99.784790784678734,19.390213558727563],[99.784789918592963,19.390032829368653],[99.784802059644008,19.389833970567196],[99.784838472687028,19.389607897053516],[99.784899330841142,19.389390754688986],[99.784960578647542,19.389254940520932],[99.784983649036008,19.389101217805056],[99.785044636779645,19.388911184799131],[99.785105451116522,19.388685005899056],[99.785177616747433,19.388467814630069],[99.785251145825754,19.388286764070003],[99.785299634558655,19.388096784943567],[99.785347062850846,19.387933920350708],[99.785395929885439,19.387698756283843],[99.785468094742953,19.387481564904952],[99.785529124726366,19.387300568212979],[99.785565244551549,19.387137752401483],[99.785613819312687,19.386965846130796],[99.785674210459646,19.386775815493568],[99.785746591327268,19.386603806356554],[99.785806690504515,19.386477033534774],[99.785867936550986,19.386341219082556],[99.785916132415821,19.386214497654098],[99.78600114115585,19.386069543829556],[99.786098517912208,19.385897426547576],[99.786193730706245,19.385770501853063],[99.786278912482757,19.385661693785156],[99.786364007387263,19.38553481274187],[99.786461005230521,19.385407880198446],[99.786544952949995,19.385290040691871],[99.786630004067902,19.385154123064098],[99.786738817726501,19.38500906597071],[99.78686021618546,19.384882027691759],[99.787017149858201,19.384718688971301],[99.787162267058065,19.384573474567851],[99.787319882145582,19.384428205962649],[99.78741067944334,19.384373593024964]]]}},
{"type":"Feature","properties":{"id":3614,"stream_id":4000040.0,"stream":4.0,"str_class":4,"str_order":0,"length_m":4360.877514,"str_cl_e":"Irrigation canal","str_cl_t":"คลองชลประทาน","str_name_e":"Irrigation Canal","str_name_t":"คลองชลประทาน"},"geometry":{"type":"MultiLineString","coordinates":[[[99.864356447947529,19.352586150855547],[99.864344904548545,19.352541022881532],[99.864260292550426,19.352405876098629],[99.864176180548469,19.352252653797297],[99.864091473687182,19.352099434271008],[99.8640069097099,19.351973323672151],[99.863933746383282,19.351865232061574],[99.863861630498533,19.351730025796048],[99.863789324493069,19.351558674191093],[99.863740724262996,19.351369137047204],[99.863716257747654,19.351242741324352],[99.863667657710394,19.351053204147586],[99.863656781588418,19.350908670872048],[99.863644905661758,19.350800288543375],[99.863620391774234,19.35066485646632],[99.863596140116002,19.350466167268525],[99.86357162633017,19.350330735176502],[99.863572198269253,19.350213257272895],[99.86352331350092,19.34996950204858],[99.863498776858961,19.349716594842807],[99.863463767790648,19.349508920030129],[99.863439206754535,19.34936445156734],[99.863379159891139,19.349147858831472],[99.863342103792021,19.349003449558957],[99.863270157028467,19.348786913159888],[99.863221438559208,19.348687741888032],[99.863149229722865,19.348534462555854],[99.863088421196963,19.348399202294196],[99.863004859978361,19.348236940113598],[99.862918776393784,19.348047580162913],[99.86283521553348,19.347885317884902],[99.862750464833212,19.34772306119433],[99.862653576775429,19.347515679134666],[99.862569968982967,19.347344380371833],[99.862472533866594,19.347146037340341],[99.862400278984808,19.346983721298447],[99.862302939234894,19.346803450820975],[99.86220664732619,19.346596065644199],[99.862122587866565,19.346451878443773],[99.86205033365988,19.34628956222566],[99.861952947285431,19.346100255180978],[99.861880788294926,19.345956011549379],[99.86180743943855,19.345811773510359],[99.861735043551164,19.345622348122426],[99.861662932404045,19.345487140718721],[99.861578589485873,19.345288735184258],[99.861530278466546,19.345153415178274],[99.861481920114727,19.345009058816292],[99.861433609266157,19.344873738774307],[99.86139738803756,19.344774507815711],[99.861361119446187,19.344666240508435],[99.861288629819455,19.344458742201969],[99.86124077209881,19.344296310258002],[99.861191914086845,19.344170029277372],[99.861119804067073,19.344034821595486],[99.861047552001168,19.343872504857714],[99.860986936611866,19.343773389054601],[99.860914921708769,19.343656253954155],[99.860854211727187,19.343539065416316],[99.860745355022786,19.343431140840003],[99.860660893034733,19.343323100980797],[99.860575383266081,19.343242175722548],[99.86046781163212,19.343152318027453],[99.860383492024752,19.343071387051744],[99.86029798252369,19.342990461650775],[99.860201763320106,19.342909586759195],[99.860044571458147,19.342774780174768],[99.859935715793526,19.342666855065744],[99.859838854650135,19.342576946428689],[99.85974254128547,19.342477998583451],[99.859632901800182,19.342333930701258],[99.859560983122194,19.34223486767667],[99.859464575532741,19.34211784697516],[99.859379925903866,19.341973661063896],[99.859344254308056,19.341865390441384],[99.859296040808047,19.341748142375934],[99.859247732810985,19.341612821599995],[99.859210776859172,19.341486483857118],[99.859162516296678,19.341360199396306],[99.859126514055816,19.34118867428101],[99.859114547534332,19.341062218704657],[99.85907813953375,19.340926841766056],[99.859054301185651,19.34069200328862],[99.859029698386394,19.340538497543985],[99.859006332865491,19.340394022531772],[99.858969282880622,19.340249612007881],[99.858945417013985,19.340123212481803],[99.858909151177343,19.340014944529834],[99.858860844065703,19.339879623593923],[99.858752425069255,19.339627110435188],[99.858692265940846,19.339500881855386],[99.858619064689051,19.33938375126414],[99.858521922820387,19.339239623687682],[99.858473710749365,19.339122375318912],[99.858401699778554,19.339005239018395],[99.858341541163028,19.338879010295148],[99.858293282111234,19.338752725513132],[99.85822108255924,19.338599443716546],[99.858184770355749,19.338482139218751],[99.858148410992001,19.338355798357586],[99.858100010620475,19.3382024044469],[99.858075550811932,19.338076007542547],[99.858039191634546,19.337949666647319],[99.858003144251597,19.337769104819021],[99.857967191362889,19.337606615684667],[99.857930955346291,19.337389908413016],[99.857906949185178,19.337236399601959],[99.85788239530487,19.337091929938126],[99.857858701037458,19.336884200183604],[99.857834052877621,19.336721657794065],[99.857834393325263,19.33655899780242],[99.857821738935087,19.336414472115468],[99.857822655843265,19.336134333895913],[99.857822977805725,19.335854198467693],[99.857822534575348,19.335655395835772],[99.857786393664341,19.335456761178296],[99.857786545460641,19.335257955736395],[99.857774344663198,19.335086318150399],[99.857762314193835,19.334833350546713],[99.857762418866599,19.33462550873298],[99.857762976956863,19.334390555042731],[99.857774508954023,19.33409229365466],[99.857762025213574,19.333866437894287],[99.857762129938294,19.333658596058719],[99.857762735265851,19.333432678702337],[99.857762480962677,19.333270021449433],[99.8577502804266,19.333098383818079],[99.857737985566729,19.332908673463677],[99.857714716900617,19.332782270799026],[99.857702110223897,19.332646781388572],[99.857665847057575,19.332538513006206],[99.857629112231052,19.332339881015368],[99.857617960334252,19.33214112867234],[99.85761780056977,19.331996544111274],[99.857617140200531,19.331870035067183],[99.857642468873209,19.331707257442908],[99.857666107002089,19.331562560931228],[99.857702786754388,19.331408766483079],[99.857751271020831,19.331236843328892],[99.857786855094218,19.33110112718343],[99.857835386373253,19.330938240368777],[99.857920397912409,19.33081132822662],[99.857980374479496,19.330675497270605],[99.858064790832756,19.330548587866563],[99.858137449774787,19.330448843509391],[99.858246258552384,19.330321819224896],[99.858331505487186,19.330240088708628],[99.858415562452691,19.330158363756851],[99.858524011954245,19.33007652391931],[99.85862056251419,19.32999474005209],[99.85870585631632,19.329922045731312],[99.858826109875324,19.329822076967925],[99.858922707369189,19.329749329309358],[99.859007217009776,19.329640492221124],[99.859115977338803,19.329504431093731],[99.859200987168634,19.329377518401301],[99.85927345590099,19.32924162818907],[99.85933333630058,19.329087724111847],[99.85936991950895,19.32891585665001],[99.859382252005744,19.328771213218282],[99.859382780270408,19.328644698580352],[99.859358132195879,19.328482156261757],[99.859333720447523,19.328364795733979],[99.859213504892296,19.328130411061196],[99.859129004938126,19.328013333609789],[99.859043362475347,19.327905298079298],[99.858899274944989,19.327770428039361],[99.858777889550908,19.327653524133517],[99.85862076115329,19.327527751852518],[99.85822224216389,19.327204310744825],[99.858113445589993,19.327105420285356],[99.85801783198329,19.327024540902091],[99.857895994348382,19.326934748247208],[99.857690442156539,19.326764019968213],[99.857582836051435,19.326665123567782],[99.8574847960938,19.326575218706065],[99.857353251651389,19.326449324952346],[99.85726884817214,19.326350319266528],[99.857147229342274,19.326188232336808],[99.857062731877249,19.326071153808062],[99.857003174359519,19.325944921448102],[99.856918582897379,19.325809770104712],[99.856870329191267,19.325683484576953],[99.856822028454204,19.325548162663317],[99.856749601057743,19.325349697943881],[99.856712509892844,19.325196250149286],[99.856664115246872,19.325042855437424],[99.856616627970169,19.324835236899947],[99.856579537064874,19.324681789060509],[99.856543588988288,19.324519299250081],[99.856495507120584,19.324311683451587],[99.856447018801617,19.324140215907995],[99.856399437943807,19.323914524530792],[99.856350808624825,19.323715947831577],[99.856302085283559,19.323499298367043],[99.856241587938939,19.323192338222242],[99.856180778326518,19.322939599066995],[99.856108789818208,19.322596546408899],[99.856048481466516,19.32232573163752],[99.856000071597677,19.322054860992985],[99.855940624133225,19.321720785951236],[99.855904206978991,19.321467932166435],[99.855879688158609,19.321215022535668],[99.855844225847449,19.320916981257369],[99.855807214163136,19.320664130209789],[99.855759165019279,19.32034807474647],[99.855759037817734,19.320095050627568],[99.855734660616477,19.319869250053387],[99.855723136233323,19.319598206188672],[99.855722649393428,19.319390366723898],[99.855722710437405,19.319173488086349],[99.855722458777123,19.319010830500115],[99.855722943117968,19.318875279253739],[99.855735231427644,19.318721599438511],[99.855734572996312,19.318595090147387],[99.855747597278452,19.318468516671668],[99.855759196588551,19.318296766884188],[99.855771531875533,19.318152123438164],[99.855807474961367,19.31797122284927],[99.855820358058182,19.317817540228159],[99.855844137427795,19.31769995288532],[99.855868417593399,19.317564289990951],[99.855892415506531,19.317374408820012],[99.855917243454201,19.317229706747906],[99.855940881572778,19.317085010253862],[99.855940034893152,19.316922355430208],[99.85594056615902,19.316795840538909],[99.855941144465149,19.316678362025346],[99.855940986770818,19.316533777162611],[99.855903898693782,19.31638032895119],[99.855868235635214,19.316272057045744]]]}},
{"type":"Feature","properties":{"id":1985,"stream_id":4000043.0,"stream":4.0,"str_class":4,"str_order":3,"length_m":1676.542718,"str_cl_e":"Irrigation canal","str_cl_t":"คลองชลประทาน","str_name_e":"Irrigation Canal","str_name_t":"คลองชลประทาน"},"geometry":{"type":"MultiLineString","coordinates":[[[99.826988023338657,19.414967501935486],[99.827023831216366,19.414867936799066],[99.827095950699487,19.414650731098316],[99.827192659276093,19.414352084396231],[99.827265190749088,19.414098730525215],[99.827337539163636,19.413809231228885],[99.827446976611185,19.413438233966968],[99.827531733227474,19.413130604964572],[99.827640620317993,19.412768646652516],[99.827724826755272,19.412470056625232],[99.827810223395119,19.412171461136435],[99.827918514067534,19.411809505378248],[99.828015219656493,19.411510858263046],[99.828124150482466,19.411157936026779],[99.828220488882266,19.410904473273799],[99.828330792422278,19.410587690896822],[99.828426626486745,19.410352303457302],[99.828511791787733,19.410126001175357],[99.828619850667792,19.409836338543766],[99.828704466000104,19.409619075243409],[99.828789035336797,19.409392775556306],[99.828898329541019,19.40911214369283],[99.828995489837538,19.408903859598798],[99.829092695691415,19.408704611807725],[99.829201027501128,19.408469166961467],[99.829297729245937,19.408287994487072],[99.82941860613434,19.408061528827801],[99.829514620547727,19.407862286263725],[99.829636870589027,19.407671960438719],[99.829805639152511,19.407382019974353],[99.829938876937021,19.407128387870447],[99.8301450977511,19.406829239507218],[99.83028923204148,19.406611703625494],[99.83049503983294,19.406348703014238],[99.830664310212399,19.406158161661963],[99.830833671970694,19.405985692861087],[99.831014983688277,19.405822205827899],[99.831122854911911,19.405731346960494],[99.831269231704994,19.405604165680003],[99.83138955634513,19.405504213141715],[99.831511025355198,19.405395218733364],[99.831656211105795,19.405268042605314],[99.831765363911472,19.405195250626122],[99.831898141586635,19.405086204215856],[99.832090348962126,19.404958812519084],[99.832212092847385,19.404904035750963],[99.832380171663544,19.404830973585959],[99.832574623783671,19.404793936685188],[99.832731577141573,19.404757071394972],[99.832888714405726,19.404756351354518],[99.833070117537673,19.40472841028464],[99.833299825184184,19.40471832068112],[99.833517033241193,19.404708288113131],[99.833722521095936,19.404734455270255],[99.833988721115389,19.40476034361145],[99.834182304753085,19.404786564868687],[99.834375339305481,19.404821824992059],[99.834592870010098,19.404875045527749],[99.834822854305159,19.404919172041986],[99.834956413505552,19.404963741272052],[99.835174036806023,19.405035033777576],[99.835330260591249,19.405088535125582],[99.835500312908124,19.405169082418869],[99.835643945038754,19.405204568271682],[99.835789455196078,19.405258118473785],[99.835958681849505,19.405293486368464]]]}},
{"type":"Feature","properties":{"id":1438,"stream_id":4000041.0,"stream":4.0,"str_class":4,"str_order":1,"length_m":1941.716689,"str_cl_e":"Irrigation canal","str_cl_t":"คลองชลประทาน","str_name_e":"Irrigation Canal","str_name_t":"คลองชลประทาน"},"geometry":{"type":"MultiLineString","coordinates":[[[99.808094674066297,19.439270556494069],[99.808433887236845,19.439241936003622],[99.808904792487638,19.43935731297908],[99.809340201456891,19.439518029840382],[99.809679075346523,19.439661103235053],[99.809967895765126,19.439795362823695],[99.810271318845892,19.439992812670688],[99.81047674659888,19.440118407181206],[99.810658360684513,19.440244107829272],[99.810851286694074,19.44036975774047],[99.811092986840038,19.440486152878893],[99.81127451201273,19.440593780154977],[99.811419496510624,19.440656387837659],[99.811577073305074,19.440737012202131],[99.811697053283254,19.440799731481984],[99.811830220930887,19.440880464798116],[99.811938889422834,19.440943234515466],[99.812144319607768,19.441068827035483],[99.812253628640633,19.441140630246032],[99.812398748842185,19.441230346179452],[99.81259176724501,19.441374066846922],[99.81272443038263,19.441472874844898],[99.812858003904438,19.44163493455407],[99.81299034199499,19.441787963133148],[99.813086824033789,19.44191404261046],[99.81317130911097,19.4420221026833],[99.81321965760057,19.442166470887713],[99.813244146911586,19.442301909454319],[99.813255808446826,19.44249162483522],[99.813280252839689,19.442618027036673],[99.813304877311126,19.44278057464135],[99.813388577411033,19.442969967087134],[99.813484880404104,19.443059900893235],[99.813642505542575,19.443149559673234],[99.813764184077286,19.443194196765649],[99.813993117551348,19.443256425748473],[99.814186104284531,19.443273632981011],[99.814343414517737,19.44330003668178],[99.814561956727701,19.443308092262786],[99.814719131775306,19.44330738658816],[99.814863759159408,19.443297700578086],[99.815021024396259,19.443315067338386],[99.815153239426508,19.443323509952389],[99.815334364233934,19.443349805796892],[99.815491629554856,19.443367172145528],[99.815661487749537,19.443402554846195],[99.815818843444859,19.443437993600213],[99.8159756490017,19.443482471238219],[99.816192676401656,19.443544750946327],[99.816350032331997,19.443580189229916],[99.816543795719824,19.443633536629523],[99.816688649218577,19.443669030878105],[99.81693123242772,19.443722158106645],[99.817136308016686,19.443775453928065],[99.817293664343183,19.443810891376767],[99.817546873944977,19.443845896810362],[99.817741647684315,19.44386309217284],[99.817873953749924,19.443889605464339],[99.81814030680458,19.443933587358917],[99.818297527602098,19.443941914902869],[99.8184906060158,19.443977190188392],[99.818695410502315,19.443976266181473],[99.818914044267302,19.444002389155745],[99.819203480828762,19.4440191556588],[99.819433290531407,19.444018117916226],[99.819687510055743,19.444016969608125],[99.819976901290914,19.444024698537252],[99.820207992469207,19.444041727103205],[99.820437206783751,19.444040690779389],[99.820690694653962,19.444012434753102],[99.820968637682313,19.443993104262898],[99.821174587336628,19.443983135735841],[99.821391253462394,19.443973118461749],[99.821657929906578,19.443962874462581],[99.821887739388231,19.443961833614331],[99.822153270532567,19.443960630613837],[99.822395537053296,19.443950496138786],[99.822624751113651,19.443949457056284],[99.822927744395002,19.443939046534439],[99.823145005630707,19.443929024471611],[99.823399133637437,19.443909798311555],[99.823580168932011,19.443918013193858],[99.823737344211054,19.443917299686348],[99.823894519483176,19.443916586042715],[99.824027880314716,19.443915980420154],[99.824185009959834,19.443906230198291],[99.824317638547825,19.443878518088425],[99.824511634854559,19.443859563556096],[99.824593705423922,19.443723642589926]]]}},
{"type":"Feature","properties":{"id":1396,"stream_id":4000041.0,"stream":4.0,"str_class":4,"str_order":1,"length_m":151.751097,"str_cl_e":"Irrigation canal","str_cl_t":"คลองชลประทาน","str_name_e":"Irrigation Canal","str_name_t":"คลองชลประทาน"},"geometry":{"type":"MultiLineString","coordinates":[[[99.762314481230632,19.442183185419307],[99.762344653719381,19.442071062253842],[99.76238144436995,19.441917284778139],[99.762429635897149,19.441655019692064],[99.76246570444836,19.441474135305999],[99.76252610292417,19.441148562404194],[99.76256297762167,19.441012857818663],[99.762578229460871,19.440836579202916]]]}},
{"type":"Feature","properties":{"id":2925,"stream_id":4000041.0,"stream":4.0,"str_class":4,"str_order":1,"length_m":229.714605,"str_cl_e":"Irrigation canal","str_cl_t":"คลองชลประทาน","str_name_e":"Irrigation Canal","str_name_t":"คลองชลประทาน"},"geometry":{"type":"MultiLineString","coordinates":[[[99.864884143151173,19.354598796248432],[99.864851987418845,19.354481473826148],[99.864815975814238,19.354309950420795],[99.86476842065052,19.354093299071394],[99.864719770806047,19.353894725992312],[99.864683664262301,19.353705129895928],[99.864598432414155,19.353452511132808],[99.864550330414602,19.353244898832415],[99.864477642145644,19.353001256999004],[99.864429135828203,19.352829792762421],[99.864393363083593,19.352703450829146],[99.864356447947529,19.352586150855547]]]}},
{"type":"Feature","properties":{"id":1397,"stream_id":4000041.0,"stream":4.0,"str_class":4,"str_order":1,"length_m":19.802541,"str_cl_e":"Irrigation canal","str_cl_t":"คลองชลประทาน","str_name_e":"Irrigation Canal","str_name_t":"คลองชลประทาน"},"geometry":{"type":"MultiLineString","coordinates":[[[99.762578229460871,19.440836579202916],[99.762413120583929,19.440923121072117]]]}},
{"type":"Feature","properties":{"id":2829,"stream_id":4000043.0,"stream":4.0,"str_class":4,"str_order":3,"length_m":3331.203056,"str_cl_e":"Irrigation canal","str_cl_t":"คลองชลประทาน","str_name_e":"Irrigation Canal","str_name_t":"คลองชลประทาน"},"geometry":{"type":"MultiLineString","coordinates":[[[99.858185900405715,19.385101706139331],[99.858504373890241,19.384205586950973],[99.858589079229503,19.384015420048431],[99.858673737015607,19.383816216803861],[99.85879460316373,19.383598769530593],[99.858903113288093,19.383408490110686],[99.859023383712952,19.383191045508823],[99.85909632744557,19.383028043514749],[99.859169318427718,19.382874077800022],[99.859242404062968,19.382738184670558],[99.859326012374055,19.382566095690052],[99.859385862654278,19.382403155435767],[99.859470803129724,19.382258169689784],[99.859555553825444,19.38207703868439],[99.859628781042076,19.381968254331202],[99.859677607852262,19.381859585253725],[99.859761357544357,19.381714605008618],[99.859822086768574,19.381605879646038],[99.859894623627454,19.38147902539653],[99.859954615267881,19.381343193889716],[99.860051815221567,19.381152967294128],[99.86011147456945,19.380953881601112],[99.860136996000705,19.380827249525879],[99.860160305080043,19.380619299135585],[99.86017294931365,19.380420435691715],[99.86016038270995,19.380293983678804],[99.860135486747581,19.380086261175158],[99.860100568645763,19.379896659101281],[99.860051678259936,19.379652903874376],[99.860003167442187,19.379481439081324],[99.859943396870918,19.379319064018205],[99.859894838859788,19.379138562873941],[99.859846565460302,19.379012279558314],[99.859798339552029,19.378895032533705],[99.859750113715819,19.378777785492176],[99.859641212195655,19.378552386712329],[99.859605436639484,19.378426044265961],[99.859557116294781,19.378290724537528],[99.859508653848309,19.378128295861654],[99.859496040612427,19.377992807434797],[99.859484069910351,19.377866352503439],[99.859508259039515,19.377712617164864],[99.859520092919624,19.377586049787109],[99.859592607310759,19.377341720815451],[99.859677355558048,19.377160589759175],[99.859750391010934,19.3770156601447],[99.85981042870516,19.376888864988],[99.859955688130881,19.376671301742476],[99.860064382318456,19.376517166955104],[99.860148819092998,19.376390256372854],[99.860221353556653,19.376263402019479],[99.860306148023383,19.376091307007222],[99.860378634802643,19.375955416286825],[99.86042676949809,19.375828677218813],[99.860487996477858,19.375701876231354],[99.860560008481642,19.375475622345576],[99.860595956108085,19.375294721660133],[99.860620191359786,19.375150022495564],[99.860632619381946,19.375023452235911],[99.860631812753027,19.374869834959803],[99.86063219633867,19.374716212052387],[99.860620630424762,19.374553609117829],[99.860595735064521,19.374345886536201],[99.860584859218335,19.374201353398689],[99.860572888080952,19.374074898508407],[99.860560132097064,19.373912301182727],[99.860559420469301,19.373776756508292],[99.860572253811384,19.373614038174825],[99.860584039263685,19.373478434402411],[99.860632578472647,19.37331554721797],[99.860668810322707,19.373188864369251],[99.860705589770234,19.373053142387299],[99.860777837718487,19.372872069966977],[99.860838873597586,19.372709123625214],[99.860923428432116,19.372491846793842],[99.860983226388342,19.372319869725708],[99.861043666784056,19.37215692613637],[99.861115914000337,19.371975853593746],[99.861176949242861,19.371812907148467],[99.861236984079298,19.371686111565015],[99.861297781722442,19.371477983521775],[99.861358269005493,19.371324076149246],[99.861406759408297,19.371152152461988],[99.861491217792889,19.370916802765219],[99.861552157330891,19.370735783580148],[99.861623118257711,19.370536643862664],[99.861659896405556,19.370400921701993],[99.861709148971016,19.370147665492574],[99.861744619434305,19.369876401441935],[99.861756856371315,19.369713685830174],[99.861769688375389,19.369550967398297],[99.861793089377571,19.36936108931129],[99.861793377087409,19.369189393725073],[99.861793759798587,19.369035770762618],[99.861793309949832,19.368836969046722],[99.861793740170597,19.368692382392208],[99.861793242844954,19.368484544354821],[99.861793578087614,19.368321885066457],[99.861793960831349,19.368168262089583],[99.861793463535463,19.367960424040291],[99.861793846292954,19.367806801057391],[99.8617933015246,19.367589926684968],[99.86179358931048,19.367418231065773],[99.861805826119635,19.367255515416108],[99.861804828770559,19.367065752794609],[99.861806449193281,19.366921160478579],[99.861805784304508,19.366794652060065],[99.861793217939834,19.366668199980584],[99.861782151880476,19.366487521550791],[99.861781487026519,19.366361013125431],[99.861769515800546,19.366234558219407],[99.861756902037783,19.366099069810517],[99.861758142634258,19.365882186945164],[99.861757477821286,19.365755678510556],[99.86179442263149,19.365538626628656],[99.861829461972974,19.365411949176099],[99.861890684301358,19.365285147764531],[99.861975114211859,19.365158236456956],[99.862060234064714,19.365049394929457],[99.862277936283292,19.364804377352943],[99.862386668354659,19.364659277683014],[99.862519202881458,19.364514065191084],[99.862699509675124,19.364287297379072],[99.862845492406905,19.364096838234545],[99.863002185953306,19.363906328211836],[99.863183324287135,19.363724738714204],[99.863304598740072,19.363588615608599],[99.863425968137662,19.363470565058201],[99.863546147237145,19.363352520076688],[99.863740375703358,19.363170867970503],[99.863872907842691,19.363025654562254],[99.863969426695178,19.362934831193968],[99.864126665292389,19.36273528113486],[99.864223136220531,19.362635421327184],[99.864319511793468,19.362517488844016],[99.864440784421035,19.362381365034608],[99.864537112060759,19.362254396131139],[99.864634677302973,19.362136457842912],[99.864767160183561,19.36198220751686],[99.864875840576673,19.361828070159767],[99.864996969278963,19.361664837067757],[99.865129213140989,19.361465404933032],[99.8652497939445,19.361311210826592],[99.865383322679079,19.361129845493085],[99.86547960119529,19.360993839817663],[99.86555217282428,19.360876019862008],[99.865649093796208,19.360749047588445],[99.865769578210873,19.360576780540264],[99.865878209062302,19.36041360632149],[99.865951279803596,19.360277710766358],[99.866036060592734,19.360105613336728],[99.866108249760856,19.359915502681076],[99.866156827694127,19.359761650462435],[99.866216759164885,19.359616780765105],[99.866277381019287,19.359489980843698],[99.866338550108324,19.359354141760921],[99.866398433557876,19.359200235697106],[99.866435157845515,19.359055476342999],[99.866471000661036,19.358856501938657],[99.866495324344214,19.35872987465212],[99.866519813470433,19.358521917717443],[99.866531641167924,19.358395349881917],[99.866555987024199,19.358160283999851],[99.86656757602519,19.357988534593982],[99.866579855512938,19.357834854980034],[99.866580377362041,19.357708340932032],[99.866547026515477,19.357365111079645]]]}},
{"type":"Feature","properties":{"id":1847,"stream_id":4000043.0,"stream":4.0,"str_class":4,"str_order":3,"length_m":2544.608819,"str_cl_e":"Irrigation canal","str_cl_t":"คลองชลประทาน","str_name_e":"Irrigation Canal","str_name_t":"คลองชลประทาน"},"geometry":{"type":"MultiLineString","coordinates":[[[99.826084954274535,19.437806966300432],[99.826084314423042,19.437680457702513],[99.82608559889448,19.437463574977119],[99.826085876716547,19.437165367995838],[99.826085100994632,19.436894275412133],[99.826086065594666,19.436614138361762],[99.826073612991394,19.436270806605187],[99.826061434656964,19.435981692814511],[99.826037075600624,19.435638415216754],[99.826037490729277,19.435367317165682],[99.826026136388336,19.435123382285909],[99.826012767651491,19.434834273867956],[99.826014189425592,19.434644500067993],[99.826001277689272,19.434445754951302],[99.826002379660423,19.434192726818164],[99.826001328794717,19.433984891176227],[99.826001926846274,19.433749938404684],[99.826001379953013,19.433524027377949],[99.826001565459308,19.43332522263573],[99.826001889423594,19.433036051847672],[99.826002029266377,19.432828210761379],[99.826026394464307,19.432584113270842],[99.826037983795047,19.432285854657646],[99.826039222891552,19.432059935469837],[99.826063496591189,19.431797765291268],[99.826086853727674,19.431589818530309],[99.826099449459832,19.431372884191589],[99.826123677316488,19.431101677657651],[99.826159444506303,19.430875601317837],[99.826172040125527,19.430658666962735],[99.826196359186213,19.430405533077256],[99.826220723879359,19.430161435519981],[99.826256811931174,19.429881138425937],[99.826281359263518,19.429673186196933],[99.826304761623192,19.429474275717219],[99.826329675683198,19.42922113908579],[99.826341949906634,19.429058425421317],[99.826377762158174,19.42884138535225],[99.82639072302068,19.42869674164448],[99.826414262250736,19.428524940150147],[99.82642731446488,19.428398369110834],[99.826426674682992,19.428271860392478],[99.826450259531555,19.428109095226333],[99.826463220298066,19.42796445150633],[99.826474944743183,19.427810776866071],[99.826499491593395,19.427602824582205],[99.82651171989049,19.427431074550455],[99.82651204217386,19.427259378712236],[99.826511494963938,19.427033467552],[99.826511725864592,19.426843699029732],[99.826511911074618,19.426644894165047],[99.826487460638958,19.426401018698307],[99.826476335277476,19.426202265304841],[99.826463378372551,19.425994483694566],[99.826428121464559,19.425732584286859],[99.826403213122887,19.425515820503858],[99.826366811548056,19.425262962821801],[99.826343872002795,19.425082336248657],[99.826306736893898,19.424919847360954],[99.826258199981424,19.424739337242706],[99.826211036472614,19.424594967052133],[99.826173855950444,19.424423441778178],[99.826125777627112,19.424215819870209],[99.826077195484984,19.424026273332544],[99.82602847646838,19.423809617746489],[99.826004942278345,19.42362899378832],[99.825981453810044,19.423457406164545],[99.825968543553614,19.423258660768642],[99.825993822872732,19.42307781477356],[99.826028672350105,19.422905961794743],[99.82607808418939,19.422670786710579],[99.826090679729759,19.422453852185992],[99.826126491228408,19.422236812050897],[99.826175628750988,19.421947418871895],[99.826186896579927,19.421703380713701],[99.826211399107876,19.421368916820636],[99.826247348839843,19.421061510496092],[99.826272674831742,19.420772225596096],[99.826296262147736,19.420374509960634],[99.82632021476158,19.420049085073604],[99.826344992473437,19.419651363992166],[99.82635758912383,19.419316954191331],[99.826393950863476,19.418973399701695],[99.826417537803266,19.418575683992771],[99.826442543570181,19.418223144586488],[99.826478402557839,19.417780190233138],[99.826514718157128,19.417427599335912],[99.82653963228708,19.417056987190243],[99.826599255645846,19.416604888086692],[99.826635707864881,19.416279406185023],[99.826696291474349,19.415899595113682],[99.826769282514192,19.415619129674191],[99.826842410388153,19.415365773253072],[99.826950521041525,19.415085147892341],[99.826988023338657,19.414967501935486]]]}},
{"type":"Feature","properties":{"id":1801,"stream_id":4000043.0,"stream":4.0,"str_class":4,"str_order":3,"length_m":188.692639,"str_cl_e":"Irrigation canal","str_cl_t":"คลองชลประทาน","str_name_e":"Irrigation Canal","str_name_t":"คลองชลประทาน"},"geometry":{"type":"MultiLineString","coordinates":[[[99.774114571886926,19.420577303165597],[99.774073664783657,19.420487111082707],[99.773965316074126,19.420234546807432],[99.773880568629863,19.420063211687896],[99.773808236723625,19.419873750337743],[99.773712093796917,19.419684390381203],[99.773627175888009,19.41947690926321],[99.773578954981218,19.419350601612631],[99.773495227984412,19.419143115343033],[99.773437992630988,19.418998772740572]]]}},
{"type":"Feature","properties":{"id":2380,"stream_id":4000043.0,"stream":4.0,"str_class":4,"str_order":3,"length_m":3361.895432,"str_cl_e":"Irrigation canal","str_cl_t":"คลองชลประทาน","str_name_e":"Irrigation Canal","str_name_t":"คลองชลประทาน"},"geometry":{"type":"MultiLineString","coordinates":[[[99.842393813773526,19.397329688499578],[99.842366881488502,19.397185228541705],[99.842318513246454,19.396923392779378],[99.842281555926888,19.396797052337941],[99.842233197151529,19.396652691607713],[99.84217348345507,19.396499346909405],[99.842064778791126,19.396310082900044],[99.84192036333819,19.396120984180754],[99.841762807724507,19.395922909618765],[99.841629701442955,19.395733758279533],[99.841569802869913,19.395544267994836],[99.841557611855109,19.395372629974243],[99.841581996928539,19.395137566805978],[99.841605702553878,19.395001908828725],[99.841642455642273,19.394857153903008],[99.841703332273113,19.394658067997447],[99.841750798419213,19.39451326345749],[99.841787318986079,19.394323326826466],[99.841848102341672,19.394106168203837],[99.841895428823506,19.393934254621421],[99.841944587206811,19.393771369095354],[99.841980744586778,19.393626616859301],[99.842016716026109,19.393445719273018],[99.842029568560363,19.39328300183837],[99.841993663342151,19.393129546728442],[99.841945259570664,19.392976149477199],[99.841884403742071,19.392831846410054],[99.841799787615571,19.392696689863637],[99.841678773288933,19.392543628642446],[99.84159493843562,19.392444614580807],[99.841461611662623,19.392327756393449],[99.841316288822412,19.392192880494161],[99.841171514970725,19.392048965375515],[99.841063595433624,19.391895843126346],[99.841015100114817,19.391724372880734],[99.840990272384332,19.391525683499832],[99.840990217831049,19.391399171985032],[99.841003117721471,19.391245490894708],[99.841039043425383,19.391055557093487],[99.841075061878399,19.390883695965488],[99.841111721840974,19.390720868417908],[99.84115900185823,19.390539918630743],[99.841196210420136,19.390368051972469],[99.841256490995804,19.390168968914296],[99.841305053885819,19.390006086265938],[99.841377469566552,19.3898521298098],[99.841449560110703,19.38963491894112],[99.841510574598416,19.389462942073823],[99.841559685777696,19.389291020267468],[99.841631682985536,19.389055736649496],[99.841703912205475,19.388865634710356],[99.841764601060817,19.388630403376034],[99.841873581608596,19.388295546375193],[99.841969839968158,19.388033040657643],[99.842078959121537,19.387725292566838],[99.842188588994418,19.387516944170596],[99.842272171313127,19.387335826005216],[99.842369302516744,19.387127535385968],[99.842441808973575,19.386991651225703],[99.842525576688857,19.386846678319021],[99.842586821536756,19.386719882825982],[99.842671732801819,19.386565868002702],[99.842768267924129,19.386357579946385],[99.842865081800028,19.386203509889768],[99.842961802490947,19.386031367103929],[99.84308195677437,19.385786823205958],[99.843190579919579,19.385614625139088],[99.843312658572898,19.385397181848191],[99.843408829724368,19.385234077945046],[99.84350628403817,19.385089041157176],[99.843614952831075,19.384925879198594],[99.843686453210552,19.384826145467422],[99.843844834308939,19.38460853346626],[99.844012737251489,19.384390877156889],[99.844121731032118,19.384290969300078],[99.844230724679605,19.384191061381877],[99.84435221613451,19.384091095392353],[99.844460754110358,19.384018299125408],[99.844654117383385,19.383890889620531],[99.844811911823982,19.383790754771244],[99.844932352162246,19.383717902958338],[99.845065197069346,19.38362692033461],[99.845185730409725,19.383572141037977],[99.845307360690157,19.383499283457279],[99.845476601855651,19.383426204526199],[99.845597088260348,19.383362388629042],[99.845717621217133,19.383307608992432],[99.845839391019069,19.383261860081401],[99.846044386540967,19.383197650943206],[99.846248740080185,19.383124408011881],[99.846430665011056,19.383087415426026],[99.846612729943502,19.383077531667379],[99.846805694123901,19.383103743202263],[99.847096039336236,19.383201793517035],[99.847277381395799,19.383282277969645],[99.847458723627639,19.383362762234007],[99.847675366150881,19.383479228026005],[99.847845494702739,19.383577837241848],[99.848026931076348,19.383676393577222],[99.848158924401233,19.38376614370695],[99.848292796867995,19.383873958070076],[99.84846192311494,19.384008717546784],[99.848594010558344,19.384116539997819],[99.848763184118894,19.384260335501171],[99.848883415980296,19.384377249589608],[99.849016741110461,19.384494102481362],[99.849150708412452,19.384619988816429],[99.849235138625573,19.384718996679553],[99.849355324308277,19.384826874097417],[99.849536589568899,19.385006758545654],[99.849742349848896,19.385204601460686],[99.849849991324064,19.385303500577912],[99.849972103936963,19.38543847818357],[99.850116237099684,19.385573352785006],[99.85022566447762,19.385672243313707],[99.850371035256643,19.385816148454218],[99.85047927265893,19.3859150443804],[99.850636092434968,19.386086005385685],[99.850768825057031,19.386202859654286],[99.850865661280977,19.386283735572867],[99.85107109610999,19.386418322583928],[99.851191738517059,19.386499086926563],[99.851385083034515,19.386597583978574],[99.85153058101973,19.386651122119385],[99.851675577919082,19.386722735566302],[99.851880778953742,19.386812140013483],[99.852038274268637,19.386883694622657],[99.852206983520389,19.386937123471935],[99.852413375392274,19.387026521717818],[99.852593533855696,19.387107006154743],[99.852763527893671,19.387178501525007],[99.852992536061251,19.387267793053308],[99.853186336446015,19.387339176368076],[99.853415345049953,19.38742846734505],[99.853608550642065,19.387499852986881],[99.853802351546435,19.387571235622683],[99.854032503968,19.387651483894025],[99.85420121459363,19.387704910833889],[99.85439496883744,19.387767256505008],[99.854552371800025,19.387820736228594],[99.854757434192223,19.387883028372546],[99.854889746640922,19.387918552643431],[99.85507214629807,19.38797191441174],[99.855204411694132,19.387998402137718],[99.855372934245253,19.388015682720855],[99.855506390021617,19.38804216462588],[99.855651654474386,19.388050517815074],[99.855808869207749,19.388067851188282],[99.855942230634355,19.388076260152076],[99.856231474838395,19.388074898701646],[99.856485368740806,19.388028520614839],[99.856618541101327,19.388000783854913],[99.856860248064649,19.387900243474959],[99.857053700161174,19.387790893645867],[99.857161639402619,19.387718092754604],[99.857307837667619,19.38756378271264],[99.857416210075328,19.387346395178131],[99.857477206817919,19.387174413580141],[99.857536918522342,19.386984364963784],[99.857608797007686,19.386731003260152],[99.857682149478862,19.386531853752192],[99.857742408566708,19.386332765960933],[99.857826973829944,19.386115490463549]]]}},
{"type":"Feature","properties":{"id":1737,"stream_id":4000043.0,"stream":4.0,"str_class":4,"str_order":3,"length_m":1296.876926,"str_cl_e":"Irrigation canal","str_cl_t":"คลองชลประทาน","str_name_e":"Irrigation Canal","str_name_t":"คลองชลประทาน"},"geometry":{"type":"MultiLineString","coordinates":[[[99.767526848817084,19.431440203364353],[99.767647615531317,19.431295106446377],[99.767768849969627,19.431122897544473],[99.767877624867182,19.430959777910012],[99.768035088458802,19.430769342310779],[99.768131446094543,19.430624348350314],[99.768191616495031,19.43050661739591],[99.768276747747819,19.430379744151551],[99.768373572787098,19.430207638162464],[99.768422261833862,19.430053809155496],[99.768483282474449,19.429863781365096],[99.768555401494041,19.429628523356129],[99.768615316215275,19.429456573490459],[99.768664685164964,19.429320814828163],[99.768761466690506,19.429139672184164],[99.768870451918232,19.429021734315771],[99.7689676157527,19.42892191974008],[99.769124140724742,19.428785707086114],[99.769269056945248,19.428712799991143],[99.769487153993467,19.428630546003472],[99.769680375363521,19.428575507142256],[99.769861732915629,19.428529555026611],[99.770080042314348,19.428492482650796],[99.770334027745278,19.428446222011129],[99.770563095132445,19.428418140057669],[99.77070822343687,19.42839041414506],[99.770865343178869,19.428380710487655],[99.771034198591408,19.428334810296015],[99.771252251525254,19.428243517773094],[99.771373906471922,19.428161671203988],[99.771506402926065,19.427980375448513],[99.771639281059961,19.427753894779137],[99.77172410951556,19.427563764809623],[99.771784572821218,19.427382775010511],[99.771857622815318,19.427219804967248],[99.771906646984249,19.427011753834467],[99.771955118415008,19.426812741677935],[99.772002185699563,19.426568552274492],[99.772062859479959,19.426306231721721],[99.772111925845962,19.426107216990534],[99.772148151590741,19.425962476694476],[99.772196793238848,19.42579961030961],[99.772257426225238,19.425654766196839],[99.772342423759909,19.425500781795193],[99.772499196262629,19.425292272182549],[99.772633007981653,19.425138079983899],[99.772753127565565,19.424983945958779],[99.772887024256477,19.424847826502742],[99.772995960932377,19.424720849844174],[99.773152350291724,19.424557524532172],[99.773249380625828,19.424430598421399],[99.773358487765464,19.424339767392965],[99.773455646092373,19.424239950554178],[99.773575935317297,19.424121961852222],[99.773709235325455,19.423985844360843],[99.773818170794726,19.423858867238817],[99.773915200204129,19.423731940794656],[99.774047861529255,19.423586789148704],[99.774144847805914,19.423450826132033],[99.774241705519898,19.423287753694204],[99.77432661439282,19.423115695515392],[99.774375381532494,19.422979937973302],[99.774435287886277,19.422807986356364],[99.77445658585907,19.422654272647865]]]}},
{"type":"Feature","properties":{"id":1897,"stream_id":4000043.0,"stream":4.0,"str_class":4,"str_order":3,"length_m":872.527221,"str_cl_e":"Irrigation canal","str_cl_t":"คลองชลประทาน","str_name_e":"Irrigation Canal","str_name_t":"คลองชลประทาน"},"geometry":{"type":"MultiLineString","coordinates":[[[99.773437992630988,19.418998772740572],[99.77337454815769,19.418800236676194],[99.773326028486352,19.418610673685855],[99.773277380726583,19.418394001280994],[99.773241191136364,19.418168239174378],[99.773241908621799,19.417942319946988],[99.773241777433611,19.417788697504545],[99.773302107630442,19.417580597792913],[99.773350916894415,19.417453876936754],[99.773423365972903,19.417290908827496],[99.773507848562303,19.417154999392388],[99.773628385982207,19.416964716488412],[99.773810788370596,19.416765133340455],[99.77393111480491,19.416656180970264],[99.774028820878627,19.416547324909519],[99.774161433733511,19.416393136806438],[99.774282140994927,19.416238999356949],[99.774414667777791,19.416066738151649],[99.774499829794024,19.415948898678522],[99.774584439225904,19.415840098170673],[99.774729847157488,19.415622598589668],[99.774838562408917,19.415450438638182],[99.774911009170793,19.415287469981671],[99.774972231438596,19.415142622474242],[99.775008919362293,19.41497076967287],[99.775032382979447,19.414771863339212],[99.775045089024218,19.4145639662467],[99.775032751290439,19.414347139342333],[99.775020966037417,19.414121273426389],[99.774997361297494,19.413913531219119],[99.774972737386861,19.413741939942785],[99.774936251201993,19.413579435904516],[99.774887731517325,19.413389873232166],[99.774840445275629,19.413209341928162],[99.77478065877979,19.413028863912157],[99.774732353479095,19.412884483509956],[99.774659981294306,19.412685985807453],[99.774611676211833,19.41254160536057],[99.774563414012064,19.412406261363433],[99.774491170629531,19.412234872973311],[99.774417908037066,19.412099635494069],[99.774345707732451,19.411937283499146],[99.774236602012934,19.411775088733918]]]}},
{"type":"Feature","properties":{"id":1472,"stream_id":4000043.0,"stream":4.0,"str_class":4,"str_order":3,"length_m":485.049056,"str_cl_e":"Irrigation canal","str_cl_t":"คลองชลประทาน","str_name_e":"Irrigation Canal","str_name_t":"คลองชลประทาน"},"geometry":{"type":"MultiLineString","coordinates":[[[99.762413120583929,19.440923121072117],[99.762636178238566,19.4406239745805],[99.762696360592003,19.44037973230288],[99.762781674348957,19.440162494298569],[99.762878641720121,19.439890987410404],[99.762950684009425,19.439764171547189],[99.763035486218911,19.43956500886484],[99.763108081379485,19.439429153975158],[99.76316940694602,19.439302383093217],[99.763253355809894,19.439175517045321],[99.763350744222308,19.438994374574349],[99.763471904222286,19.43880409540856],[99.763604375600181,19.438613768573251],[99.763702016829839,19.438486844717076],[99.763882710964396,19.438296314757373],[99.764040270637622,19.43812395530621],[99.764209652373069,19.437933472660283],[99.76439098294604,19.437751976181275],[99.764536081587423,19.437588705445211],[99.764645075367753,19.437470769926513],[99.764765806659796,19.43731663831861],[99.764822025962374,19.437244108280044]]]}},
{"type":"Feature","properties":{"id":1458,"stream_id":4000043.0,"stream":4.0,"str_class":4,"str_order":3,"length_m":635.092562,"str_cl_e":"Irrigation canal","str_cl_t":"คลองชลประทาน","str_name_e":"Irrigation Canal","str_name_t":"คลองชลประทาน"},"geometry":{"type":"MultiLineString","coordinates":[[[99.824775845835731,19.44336135340372],[99.824825903547648,19.443252687454699],[99.824946673674631,19.442999115479214],[99.825019493513921,19.442799980657465],[99.825103946331936,19.442546573709084],[99.825152997263146,19.442356583451264],[99.825212855799307,19.442184617096906],[99.825262410526761,19.441976551450942],[99.825309857753453,19.441822714579505],[99.825358999606578,19.441650796920133],[99.825431131696462,19.441433591999832],[99.825478624304637,19.441288791413033],[99.82553976421292,19.441134892193787],[99.825600171605899,19.440953886685307],[99.825673813619389,19.440799930542351],[99.825732663165297,19.440664114751431],[99.825781804269639,19.440492196984941],[99.825806673115892,19.440347499265876],[99.825867492509545,19.440130345659028],[99.825902803274047,19.439931381196526],[99.825951165857489,19.4397233207876],[99.825988079674005,19.439488202870223],[99.826011483310197,19.439289292576792],[99.826036672928012,19.439090374148613],[99.82604853644257,19.438846333695135],[99.826060628459487,19.438647474873669],[99.82608554371734,19.4383943384641],[99.826085087839985,19.438186500213071],[99.826085135904918,19.437960586591046],[99.826084954274535,19.437806966300432]]]}},
{"type":"Feature","properties":{"id":2130,"stream_id":4000043.0,"stream":4.0,"str_class":4,"str_order":3,"length_m":853.380156,"str_cl_e":"Irrigation canal","str_cl_t":"คลองชลประทาน","str_name_e":"Irrigation Canal","str_name_t":"คลองชลประทาน"},"geometry":{"type":"MultiLineString","coordinates":[[[99.8388640960559,19.404033055875033],[99.838908459100665,19.403978631837997],[99.839004830206122,19.403851675350406],[99.839064939553765,19.403733922765465],[99.839137865451008,19.403561891712592],[99.839199072344286,19.403426060926346],[99.839259042375005,19.403281199285537],[99.839343733038064,19.403082004192676],[99.839416063166297,19.402909975786368],[99.839500799817273,19.402719816959046],[99.839573222351632,19.402565861160426],[99.839646286324594,19.402420938918382],[99.839731022473941,19.402230779993065],[99.839815990289807,19.402085802693406],[99.83991222048877,19.401931736769768],[99.840068697574651,19.40168702690789],[99.840238500648866,19.401487438053955],[99.840395487250873,19.401342127582915],[99.840516351834538,19.401233130197081],[99.840637309085139,19.401142205398322],[99.840770077402027,19.401033152801553],[99.840940018238541,19.40086067232847],[99.841096910737477,19.40069728862607],[99.841242038256965,19.400561068878336],[99.841386979720212,19.400388703700422],[99.841508298757674,19.400252593949244],[99.841629478195955,19.400089375132424],[99.841725844965396,19.399962417313208],[99.841810716930112,19.399799366495724],[99.841895774649956,19.3996724609617],[99.841955238788231,19.399545673929364],[99.842027750665196,19.399409789898492],[99.842124888707517,19.399201499402988],[99.842173592508956,19.399065725604423],[99.84219734456839,19.398939103935106],[99.842234190859841,19.398812421598279],[99.842245852989379,19.398649709750746],[99.842306590597943,19.398423514709567],[99.842330249480838,19.398278820360861],[99.842354503518465,19.398134123250571],[99.84236685370162,19.397989481292754],[99.842391014669658,19.397826711514728],[99.842390865824484,19.397682127466624],[99.84240362513799,19.397501337420461],[99.842403020611044,19.397383865118464],[99.842393813773526,19.397329688499578]]]}},
{"type":"Feature","properties":{"id":2515,"stream_id":4000043.0,"stream":4.0,"str_class":4,"str_order":3,"length_m":526.2935,"str_cl_e":"Irrigation canal","str_cl_t":"คลองชลประทาน","str_name_e":"Irrigation Canal","str_name_t":"คลองชลประทาน"},"geometry":{"type":"MultiLineString","coordinates":[[[99.793111473145103,19.37927926739172],[99.793231934624572,19.379206449056412],[99.793583244977469,19.378997074177455],[99.793776224202404,19.378905865891845],[99.793982252246977,19.378805563816922],[99.794126474307802,19.378723604574056],[99.794259432593634,19.378650731038888],[99.794380776700464,19.378514651566981],[99.794513428014753,19.378378522645868],[99.79463485934825,19.378260515931647],[99.794743924337283,19.378169673102008],[99.794900555418579,19.378069585771001],[99.795106318631028,19.377915063730391],[99.795335886426415,19.377760437420648],[99.795552956183812,19.377605865474774],[99.795673922689105,19.377514970076167],[99.796507961000529,19.375975091018869]]]}},
{"type":"Feature","properties":{"id":2005,"stream_id":4000043.0,"stream":4.0,"str_class":4,"str_order":3,"length_m":350.833778,"str_cl_e":"Irrigation canal","str_cl_t":"คลองชลประทาน","str_name_e":"Irrigation Canal","str_name_t":"คลองชลประทาน"},"geometry":{"type":"MultiLineString","coordinates":[[[99.835958681849505,19.405293486368464],[99.83623756731572,19.405355459222083],[99.836406060357305,19.405363720420148],[99.836587509613807,19.405344812174821],[99.836829486236354,19.4052894788679],[99.836962630231042,19.405252719568008],[99.837155660010552,19.40517050159194],[99.837324285674796,19.405088395851365],[99.837494650565688,19.404997245396714],[99.837699445308218,19.404887863002401],[99.837856166066814,19.404805811655326],[99.838014030817746,19.404714718355415],[99.838134443090709,19.404632834186753],[99.838267354763474,19.404550892291837],[99.838425172730012,19.404450762316785],[99.838534229212854,19.404359893731851],[99.838643285573966,19.40426902508511],[99.838763558240359,19.404160031521506],[99.8388640960559,19.404033055875033]]]}},
{"type":"Feature","properties":{"id":2722,"stream_id":4000043.0,"stream":4.0,"str_class":4,"str_order":3,"length_m":1415.260243,"str_cl_e":"Irrigation canal","str_cl_t":"คลองชลประทาน","str_name_e":"Irrigation Canal","str_name_t":"คลองชลประทาน"},"geometry":{"type":"MultiLineString","coordinates":[[[99.796507961000529,19.375975091018869],[99.796737948335789,19.375540325093596],[99.796798917858979,19.375350288526374],[99.796859931182297,19.375169288396236],[99.796920612883341,19.37504250959152],[99.796968201990182,19.374915788105049],[99.797041205129133,19.374752808706937],[99.797102130094345,19.374553735588254],[99.797174713635528,19.374426904573173],[99.797247165208717,19.374272964162081],[99.797319572693979,19.374109987267964],[99.797391760241055,19.373901828064881],[99.797428241056892,19.373693825291301],[99.797440542148266,19.373531111704516],[99.797417224655049,19.37338662748046],[99.797404950499981,19.373187874966234],[99.797356286961872,19.372971208574924],[99.797307799372945,19.372790687992161],[99.797235595579053,19.37262834457799],[99.797163216158751,19.372429855293387],[99.797090924800415,19.372249438887113],[99.797018765412389,19.372096131820289],[99.796922626327174,19.371906783107772],[99.7968856661481,19.37177139515456],[99.796849852313642,19.371626965518939],[99.796849788551981,19.371491416013122],[99.796861451115305,19.371319668556932],[99.796862050468491,19.37107567631103],[99.796873844778474,19.370931038229632],[99.796970542582514,19.370623368657437],[99.797019232835922,19.370478569010888],[99.79707905411837,19.370297573995945],[99.797140285152253,19.370161756054177],[99.797248684345178,19.369935364973411],[99.797309871167599,19.369790510518296],[99.797358009752401,19.369654749854931],[99.797417918292624,19.369491827658102],[99.797491338052183,19.369292699634638],[99.797551797475876,19.369120738328665],[99.797612939790938,19.368966847318244],[99.797661453187231,19.36878590166754],[99.797709040088648,19.368659179986057],[99.797757090110053,19.368505346301902],[99.797817041843373,19.368351460443513],[99.797866325834121,19.368206657977094],[99.797902561762953,19.368070949343949],[99.797951250514473,19.367926149464175],[99.798011357171902,19.367681896324708],[99.798048739074062,19.367537145984411],[99.798096193399772,19.367383314823783],[99.798132892114339,19.367220494152473],[99.798181536450599,19.367066657752368],[99.798228858565224,19.366885717173666],[99.798277701888523,19.366650549984161],[99.798338798689343,19.366487622283874],[99.798410981953097,19.366279462669436],[99.798472210497025,19.366143644313016],[99.798532204777359,19.365998794696107],[99.798592750030394,19.365844905988734],[99.798713002149029,19.365609425434343],[99.798822542512482,19.365373991805662],[99.798882536224141,19.36522914208226],[99.79893190647951,19.365102412268921],[99.799028266463509,19.364848963051546],[99.799100911184638,19.364613691185873],[99.799149421825561,19.364432745157366],[99.799196918360067,19.364287950188807],[99.799257573062349,19.364034657580603],[99.799305400228278,19.363835641199092]]]}},
{"type":"Feature","properties":{"id":2339,"stream_id":4000043.0,"stream":4.0,"str_class":4,"str_order":3,"length_m":118.351436,"str_cl_e":"Irrigation canal","str_cl_t":"คลองชลประทาน","str_name_e":"Irrigation Canal","str_name_t":"คลองชลประทาน"},"geometry":{"type":"MultiLineString","coordinates":[[[99.857826973829944,19.386115490463549],[99.858185900405715,19.385101706139331]]]}},
{"type":"Feature","properties":{"id":2176,"stream_id":4000043.0,"stream":4.0,"str_class":4,"str_order":3,"length_m":2419.364267,"str_cl_e":"Irrigation canal","str_cl_t":"คลองชลประทาน","str_name_e":"Irrigation Canal","str_name_t":"คลองชลประทาน"},"geometry":{"type":"MultiLineString","coordinates":[[[99.774236602012934,19.411775088733918],[99.774128048996829,19.411603854887147],[99.774019496212389,19.411432620964494],[99.773899038675623,19.411261437672724],[99.773814424556193,19.411117211603511],[99.773704724681451,19.410955019002273],[99.773596768034707,19.410783782250093],[99.773512325362987,19.410675701902107],[99.773402626093741,19.41051350909008],[99.773318736219878,19.410396389633636],[99.77321018511401,19.410225155147927],[99.773138115014959,19.410089911989459],[99.773077311979833,19.409945584206351],[99.773029986157894,19.409756015786119],[99.772993246731886,19.409539292345567],[99.772969431953584,19.409286367287539],[99.772969555003968,19.409060450362272],[99.772956967038084,19.408915917407338],[99.772957517081082,19.408780365221457],[99.772981746117949,19.408491089148178],[99.772994796166387,19.408355483785236],[99.773019153195349,19.408093317124287],[99.773066556158057,19.407921418989819],[99.773115872843334,19.40777662267287],[99.773200775492313,19.407604564965478],[99.773284615629279,19.407459621713485],[99.773382188739902,19.407323656639502],[99.773491113866413,19.407196679856344],[99.773598933811343,19.407087781029968],[99.773719253519644,19.406978828925602],[99.7738531779505,19.406851745500298],[99.773998283349357,19.406697504391492],[99.774167792987754,19.406543159215289],[99.774325483208784,19.406406937560543],[99.77444584470345,19.40630702147514],[99.774591162960704,19.406197962289692],[99.774712671811855,19.4060890044885],[99.774820575798074,19.405998177924751],[99.774942127145735,19.405898256451664],[99.775062487885847,19.405798339978215],[99.775207719649032,19.405671207377143],[99.775329227695977,19.405562249185131],[99.775497587268617,19.405416944384747],[99.775619052098293,19.405298949536469],[99.77575178322104,19.405171869867516],[99.775848333872418,19.405072054524204],[99.775980978926228,19.404926901752734],[99.776114899917758,19.404799816750906],[99.776211407263673,19.404690964753922],[99.77633274242514,19.404545860040148],[99.776440515856962,19.404427923150294],[99.776574436085014,19.404300837829407],[99.776707251442701,19.404191830445363],[99.776840281117558,19.404128005325084],[99.777033980479345,19.404054884091991],[99.777214498933077,19.403963745713146],[99.777408621423149,19.403854475665703],[99.777554107249401,19.403781560105688],[99.777686964463399,19.40368158850654],[99.777807960050694,19.403590704228009],[99.777964453928007,19.403454484669467],[99.778110871776178,19.403327344770723],[99.778267408123483,19.403200161433965],[99.778400178457744,19.403082116400846],[99.778569680171245,19.402927767331374],[99.778714863639934,19.402791595602011],[99.778836410202345,19.402691671654281],[99.778992859344214,19.402546414788286],[99.779173841144811,19.402428162589402],[99.779320128033319,19.402273912363626],[99.779440354293641,19.402146883733725],[99.779538048292281,19.402038024965165],[99.779645860807193,19.401929122747131],[99.77975477749807,19.401802142427815],[99.779875003077436,19.401675113527649],[99.779972696508381,19.401566254539713],[99.780092792530183,19.401412116103455],[99.780251447861218,19.401230702130789],[99.780407808175781,19.401067371182815],[99.780565824519996,19.400876923041604],[99.780686048797079,19.400749893637705],[99.7807711986339,19.400632051461404],[99.780867700435905,19.400523197135396],[99.780987794864359,19.40036905814625],[99.781181945033453,19.400142307649435],[99.781339407529657,19.399960897902414],[99.781437055834232,19.399843001711069],[99.781617515034242,19.399616309625372],[99.7817634950148,19.399398802296595],[99.78185871870285,19.399271879666877],[99.781943823777283,19.399145000513322],[99.78208988927085,19.398945565871138],[99.782234764008365,19.398746136241751],[99.782392689643999,19.398537613686834],[99.782537520461617,19.398329147368067],[99.782658163739157,19.398165968322875],[99.782731363640451,19.398039140073401],[99.782827689777449,19.397894138917],[99.782948711548457,19.397685774807595],[99.783057536450585,19.397540719709596],[99.783130183808055,19.39742293033931],[99.783262686548369,19.397250663180472],[99.783360202159571,19.397105656633666],[99.78346898307386,19.396951564842379],[99.78357785029344,19.396815545918397],[99.783662823027129,19.396661556625553],[99.783746605216749,19.396507572427417],[99.783867711374199,19.396317280679064],[99.783929048960417,19.396199539768059],[99.784048964302485,19.396009253040425],[99.784182655346584,19.395836980125107],[99.784279065526974,19.395710051182114],[99.784400473568653,19.3955830143485],[99.784532886916395,19.395392673401584],[99.784678437435275,19.395211312319653],[99.78476239122088,19.395093473540815],[99.784870909597331,19.394885162191638],[99.784955966808838,19.394749245265615],[99.785011903042701,19.394622490678874]]]}},
{"type":"Feature","properties":{"id":2215,"stream_id":4000043.0,"stream":4.0,"str_class":4,"str_order":3,"length_m":260.703924,"str_cl_e":"Irrigation canal","str_cl_t":"คลองชลประทาน","str_name_e":"Irrigation Canal","str_name_t":"คลองชลประทาน"},"geometry":{"type":"MultiLineString","coordinates":[[[99.785011903042701,19.394622490678874],[99.785040763908654,19.394559109525002],[99.785125474152565,19.39435090082177],[99.785186593455748,19.394187977203568],[99.78523572226824,19.3940070320457],[99.785259214720654,19.393817160937026],[99.785259711665816,19.393672572383299],[99.785235254262105,19.393537128241089],[99.785223252402474,19.393392593655769],[99.785175192979906,19.393175921556121],[99.785150605742317,19.393013367997337],[99.785126992274044,19.392805626968499],[99.785090793447708,19.392579866962375],[99.785024099813,19.392324869467966]]]}},
{"type":"Feature","properties":{"id":2453,"stream_id":4000043.0,"stream":4.0,"str_class":4,"str_order":3,"length_m":883.807901,"str_cl_e":"Irrigation canal","str_cl_t":"คลองชลประทาน","str_name_e":"Irrigation Canal","str_name_t":"คลองชลประทาน"},"geometry":{"type":"MultiLineString","coordinates":[[[99.78741067944334,19.384373593024964],[99.787585944436003,19.384309577701352],[99.787778846481686,19.38420030255725],[99.787960019154951,19.384127224643141],[99.788153094625883,19.384054094983227],[99.78832240748352,19.383990104755249],[99.788503579664294,19.383917026314766],[99.788745413206087,19.383834648037244],[99.788891006732953,19.38378883344155],[99.789108569433125,19.383733669904245],[99.789290336100052,19.383660588118836],[99.789459140017001,19.383614672370797],[99.789652388387694,19.383577687015951],[99.789796791114654,19.383531876877711],[99.7899423840487,19.383486061458814],[99.790100387795832,19.383422118718872],[99.790281050532016,19.383367114063908],[99.790462177483832,19.383284997260368],[99.79063135774274,19.383193895551234],[99.790751735966793,19.383103005824623],[99.790909477258992,19.382984843633078],[99.791054589410905,19.382839626272652],[99.791152220787481,19.382721725248174],[99.791272423797594,19.382594689349538],[99.791368864589629,19.382476793393419],[99.791695472992217,19.381833770148411],[99.791696559770969,19.381689178999618],[99.791743630695791,19.381454021223387],[99.791829254418204,19.381191585690068],[99.791950078280294,19.380947070201749],[99.792034816931917,19.38074789498997],[99.792094909190254,19.380621120256876],[99.792179734886943,19.380440017905681],[99.792228475689413,19.380304255903777],[99.792349254646098,19.380050703709429],[99.792434167188631,19.379887674171695],[99.792518615551273,19.379751756573942],[99.792615141248419,19.379651932934163],[99.792736706057511,19.379561036804798],[99.792989952487204,19.379379200220271],[99.793111473145103,19.37927926739172]]]}},
{"type":"Feature","properties":{"id":2817,"stream_id":4000043.0,"stream":4.0,"str_class":4,"str_order":3,"length_m":598.512906,"str_cl_e":"Irrigation canal","str_cl_t":"คลองชลประทาน","str_name_e":"Irrigation Canal","str_name_t":"คลองชลประทาน"},"geometry":{"type":"MultiLineString","coordinates":[[[99.799305400228278,19.363835641199092],[99.799318271633226,19.36379040141421],[99.799343794211538,19.363654739530006],[99.799391996029314,19.363410538200185],[99.799427789322294,19.363184464649155],[99.799440639073055,19.363012711764267],[99.799451791687673,19.362859039640384],[99.799477093804043,19.362678195417644],[99.799476300958176,19.362515539081091],[99.799501184132609,19.362370843317201],[99.799524656889972,19.362180970457914],[99.799561287530778,19.361882599931622],[99.79956062678508,19.361747052975623],[99.799585972708471,19.361575245190185],[99.799610283008164,19.361313075372205],[99.799633887692082,19.361150311879641],[99.799646913361386,19.361014704812973],[99.799694805723689,19.360707248124974],[99.799707148151057,19.360553570734439],[99.799731259608521,19.360372731680261],[99.799755503190028,19.360219002015945],[99.799780385848663,19.360074306198968],[99.799803902116651,19.359893469744605],[99.799804299186448,19.359730808144189],[99.799828146098534,19.359495750276572],[99.799852764250289,19.359296835651094],[99.799864709937509,19.359061830043519],[99.799913306452638,19.358898956722609],[99.799926243660622,19.358745276685408],[99.799961572587662,19.358546314989379],[99.799975501367086,19.358473960527171]]]}},
{"type":"Feature","properties":{"id":1542,"stream_id":4000043.0,"stream":4.0,"str_class":4,"str_order":3,"length_m":707.311547,"str_cl_e":"Irrigation canal","str_cl_t":"คลองชลประทาน","str_name_e":"Irrigation Canal","str_name_t":"คลองชลประทาน"},"geometry":{"type":"MultiLineString","coordinates":[[[99.764822025962374,19.437244108280044],[99.764899508359704,19.437135342045782],[99.764983243190869,19.436963292932496],[99.765105675172734,19.436791080658388],[99.765201869485637,19.436609942284285],[99.765285857767381,19.436492111823163],[99.765383242396538,19.436310968339381],[99.765479563174694,19.436156939219263],[99.765552750198012,19.436021080910862],[99.765601401101662,19.435858216145068],[99.76567484438209,19.435650063571352],[99.765759514192041,19.435423790321238],[99.765855579921606,19.435215542234783],[99.765891855336577,19.435079839536304],[99.765976609319537,19.434871639118587],[99.766013437529992,19.434726897420685],[99.766049543219765,19.434555048836135],[99.766098193241731,19.434392183942801],[99.766158921384033,19.434138901627982],[99.766243632194957,19.43392166462829],[99.766328300401767,19.433695391127451],[99.766388814155263,19.433523439428861],[99.766485388582566,19.433297115589333],[99.766546156431346,19.433179382626893],[99.766630908674529,19.432971181922444],[99.766679684916085,19.432835426273744],[99.766788165122591,19.432609051996888],[99.766861775227738,19.432437044827537],[99.766933173550555,19.432301193547914],[99.767018306685259,19.432174320853285],[99.76712699815252,19.431993128709554],[99.767273067548373,19.431784668598517],[99.767405613894809,19.431612412115431],[99.767526848817084,19.431440203364353]]]}},
{"type":"Feature","properties":{"id":2252,"stream_id":4000043.0,"stream":4.0,"str_class":4,"str_order":3,"length_m":217.869664,"str_cl_e":"Irrigation canal","str_cl_t":"คลองชลประทาน","str_name_e":"Irrigation Canal","str_name_t":"คลองชลประทาน"},"geometry":{"type":"MultiLineString","coordinates":[[[99.785024099813,19.392324869467966],[99.785030386335677,19.392146368445474],[99.785006946469821,19.391974773234228],[99.784982143030717,19.391767037289842],[99.784958151425954,19.391604481096742],[99.784922386308139,19.391469085673585],[99.784897842955587,19.391315568499053],[99.784850596401327,19.391144075993282],[99.784813381293219,19.390954466870262],[99.784801585497974,19.390728601422726],[99.784789584322425,19.390584066743827],[99.784789778649042,19.390376222852506]]]}},
{"type":"Feature","properties":{"id":1340,"stream_id":4000043.0,"stream":4.0,"str_class":4,"str_order":3,"length_m":44.428572,"str_cl_e":"Irrigation canal","str_cl_t":"คลองชลประทาน","str_name_e":"Irrigation Canal","str_name_t":"คลองชลประทาน"},"geometry":{"type":"MultiLineString","coordinates":[[[99.824593705423922,19.443723642589926],[99.824644954079659,19.443614971275188],[99.824741084821156,19.443433803677113],[99.824775845835731,19.44336135340372]]]}},
{"type":"Feature","properties":{"id":2859,"stream_id":4000043.0,"stream":4.0,"str_class":4,"str_order":3,"length_m":275.496084,"str_cl_e":"Irrigation canal","str_cl_t":"คลองชลประทาน","str_name_e":"Irrigation Canal","str_name_t":"คลองชลประทาน"},"geometry":{"type":"MultiLineString","coordinates":[[[99.799975501367086,19.358473960527171],[99.799986498933066,19.358410655599616],[99.800023216292715,19.358130357850772],[99.800046379563241,19.357877229613965],[99.800059008134497,19.357660294290429],[99.800070799120917,19.357515655925585],[99.800083890498229,19.357271608578607],[99.800094866061769,19.357081790485754],[99.800107538617041,19.356873891611972],[99.800131142341215,19.356711128016716],[99.80014394704682,19.356530338537826],[99.800167550698802,19.356367574934829],[99.800192983517292,19.356213839952506],[99.800204223358065,19.356078240646504],[99.800217512747139,19.355996852303925]]]}},
{"type":"Feature","properties":{"id":1152,"stream_id":4000060.0,"stream":6.0,"str_class":4,"str_order":0,"length_m":618.862137,"str_cl_e":"Irrigation canal","str_cl_t":"คลองชลประทาน","str_name_e":"Irrigation  Canal","str_name_t":"คลองส่งน้ำชลประทาน"},"geometry":{"type":"MultiLineString","coordinates":[[[100.120352056371999,19.46323730824178],[100.120000378566104,19.464567757820589],[100.120101405498175,19.468786894800285]]]}},
{"type":"Feature","properties":{"id":1148,"stream_id":4000060.0,"stream":6.0,"str_class":4,"str_order":0,"length_m":1464.679443,"str_cl_e":"Irrigation canal","str_cl_t":"คลองชลประทาน","str_name_e":"Irrigation  Canal","str_name_t":"คลองส่งน้ำชลประทาน"},"geometry":{"type":"MultiLineString","coordinates":[[[100.130047478574483,19.4729268275658],[100.128616339982401,19.469529225497631],[100.127941326368841,19.468783450750081],[100.126900371787585,19.467985733604731],[100.125550810184436,19.466729096921618],[100.12420579637849,19.465869999720859],[100.121634088915712,19.463861892700564],[100.120900389346289,19.463405600507855]]]}},
{"type":"Feature","properties":{"id":1248,"stream_id":4000060.0,"stream":6.0,"str_class":4,"str_order":0,"length_m":1612.552906,"str_cl_e":"Irrigation canal","str_cl_t":"คลองชลประทาน","str_name_e":"Irrigation  Canal","str_name_t":"คลองส่งน้ำชลประทาน"},"geometry":{"type":"MultiLineString","coordinates":[[[100.120287778460607,19.462894341504168],[100.120455492303265,19.461393346446609],[100.120394329890701,19.461330473173593],[100.120261792901147,19.460237948724998],[100.120251468695443,19.459081417618346],[100.120424120155974,19.458212904556991],[100.120419925551516,19.457688848341395],[100.120596942453531,19.457109456897303],[100.121672741866803,19.455196230854309],[100.121961293662878,19.453694486648462],[100.122198430948558,19.453114721879075],[100.122307546577716,19.451839984821277],[100.122485359392783,19.451378053520912],[100.122716577250046,19.450111596352844],[100.123129899547322,19.44883497551594]]]}},
{"type":"Feature","properties":{"id":1151,"stream_id":4000061.0,"stream":6.0,"str_class":4,"str_order":1,"length_m":60.498483,"str_cl_e":"Irrigation canal","str_cl_t":"คลองชลประทาน","str_name_e":"Irrigation  Canal","str_name_t":"คลองส่งน้ำชลประทาน"},"geometry":{"type":"MultiLineString","coordinates":[[[100.120900389346289,19.463405600507855],[100.120352056371999,19.46323730824178]]]}},
{"type":"Feature","properties":{"id":1155,"stream_id":4000061.0,"stream":6.0,"str_class":4,"str_order":1,"length_m":38.551913,"str_cl_e":"Irrigation canal","str_cl_t":"คลองชลประทาน","str_name_e":"Irrigation  Canal","str_name_t":"คลองส่งน้ำชลประทาน"},"geometry":{"type":"MultiLineString","coordinates":[[[100.120287778460607,19.462894341504168],[100.120352056371999,19.46323730824178]]]}},
{"type":"Feature","properties":{"id":1083,"stream_id":4000061.0,"stream":6.0,"str_class":4,"str_order":1,"length_m":1630.266505,"str_cl_e":"Irrigation canal","str_cl_t":"คลองชลประทาน","str_name_e":"Irrigation  Canal","str_name_t":"คลองส่งน้ำชลประทาน"},"geometry":{"type":"MultiLineString","coordinates":[[[100.083605655478166,19.47152981548621],[100.084034677530852,19.471933868307048],[100.084960413430736,19.473428298904718],[100.085348082682302,19.475847616212043],[100.085728621087355,19.477462773677235],[100.085732286760859,19.47792358579084],[100.087264759210754,19.48564917244811]]]}},
{"type":"Feature","properties":{"id":1053,"stream_id":4000062.0,"stream":6.0,"str_class":4,"str_order":2,"length_m":2200.298818,"str_cl_e":"Irrigation canal","str_cl_t":"คลองชลประทาน","str_name_e":"Irrigation  Canal","str_name_t":"คลองส่งน้ำชลประทาน"},"geometry":{"type":"MultiLineString","coordinates":[[[100.176514935985182,19.489058051562385],[100.175713888655125,19.487969930883732],[100.174966327055813,19.486122457153336],[100.174222765722391,19.484744811761228],[100.173362602264476,19.483711276226625],[100.17199976245621,19.481172019378057],[100.171077318316051,19.480084659521086],[100.168439608702741,19.477616858739761],[100.167337224465172,19.476756531958667],[100.167093905513298,19.476703884982115],[100.164581066754778,19.47469604199669],[100.164093210435468,19.474419068013866],[100.163547935931106,19.473939156375067]]]}},
{"type":"Feature","properties":{"id":1095,"stream_id":4000062.0,"stream":6.0,"str_class":4,"str_order":2,"length_m":657.673163,"str_cl_e":"Irrigation canal","str_cl_t":"คลองชลประทาน","str_name_e":"Irrigation  Canal","str_name_t":"คลองส่งน้ำชลประทาน"},"geometry":{"type":"MultiLineString","coordinates":[[[100.163547935931106,19.473939156375067],[100.162007975942117,19.472580117912095],[100.160223371284289,19.470224176844962],[100.160036114976393,19.469764550321131],[100.160088160119173,19.469213033961228]]]}},
{"type":"Feature","properties":{"id":1223,"stream_id":4000062.0,"stream":6.0,"str_class":4,"str_order":2,"length_m":3131.965476,"str_cl_e":"Irrigation canal","str_cl_t":"คลองชลประทาน","str_name_e":"Irrigation  Canal","str_name_t":"คลองส่งน้ำชลประทาน"},"geometry":{"type":"MultiLineString","coordinates":[[[100.08574232424985,19.453318568445077],[100.08574160281313,19.453210140933365],[100.08476298644473,19.452520225893061],[100.08391013993436,19.452299425126363],[100.083424697314442,19.452356541630252],[100.082096820496872,19.453403608559842],[100.081551119968836,19.453352647789004],[100.080328662894345,19.452609946089702],[100.079476361080665,19.452560805011572],[100.079174641308697,19.452671032623932],[100.078692538104193,19.453143772821004],[100.078635035684684,19.45354169893336],[100.078883785626417,19.454064307371141],[100.079679195631016,19.454692093554645],[100.079926341447774,19.455151457850501],[100.079990591132059,19.455503479118097],[100.079875705627273,19.456136683094428],[100.079157192192014,19.457234316272782],[100.079161612801016,19.457812593781799],[100.079287185161888,19.458164250238404],[100.079293155859574,19.458796734413351],[100.079540848215061,19.459427779460714],[100.080519663410328,19.460054468249044],[100.081072431880401,19.460629476432686],[100.081024497976557,19.462021304581288],[100.081521931021584,19.463229159934663],[100.082203111990466,19.464490132453964],[100.082700746615458,19.465815450117535],[100.083071351316121,19.466391538742542],[100.08313555343419,19.466734522306229],[100.08356923461956,19.467662635861377],[100.083636550913837,19.46829475176494],[100.083950873551473,19.469449476958314],[100.083898650935737,19.470371458662932],[100.08360373350051,19.471240675828813],[100.083605655478166,19.47152981548621]]]}},
{"type":"Feature","properties":{"id":7338,"stream_id":4019101.0,"stream":1910.0,"str_class":4,"str_order":1,"length_m":202.624313,"str_cl_e":"Irrigation canal","str_cl_t":"คลองชลประทาน","str_name_e":null,"str_name_t":null},"geometry":{"type":"MultiLineString","coordinates":[[[100.386100801518097,19.103970914876161],[100.385908932629221,19.103972359097529],[100.385723673200445,19.103982788891241],[100.385567453403667,19.104056248574853],[100.385408932599248,19.104138760958694],[100.385228124233961,19.10411301472104],[100.385058970733411,19.104060074092061],[100.384883433484646,19.10402525234343],[100.384746349844121,19.103899786091937],[100.384650028308613,19.103746906663712],[100.38439844946231,19.103640372088307]]]}},
{"type":"Feature","properties":{"id":7390,"stream_id":4019113.0,"stream":1911.0,"str_class":4,"str_order":3,"length_m":190.338047,"str_cl_e":"Irrigation canal","str_cl_t":"คลองชลประทาน","str_name_e":null,"str_name_t":null},"geometry":{"type":"MultiLineString","coordinates":[[[100.397245456800462,19.101440328772934],[100.397240053239813,19.101221259385369],[100.397238611996571,19.101049596199882],[100.397281127319062,19.100877599502599],[100.397285032122753,19.100705895751563],[100.397286409196312,19.100516140215547],[100.397286080119599,19.100335433101552],[100.397282781033198,19.100154748517994],[100.397277105950934,19.099974081957388],[100.397189597326815,19.099739823351378]]]}},
{"type":"Feature","properties":{"id":7366,"stream_id":4019113.0,"stream":1911.0,"str_class":4,"str_order":3,"length_m":1419.376696,"str_cl_e":"Irrigation canal","str_cl_t":"คลองชลประทาน","str_name_e":null,"str_name_t":null},"geometry":{"type":"MultiLineString","coordinates":[[[100.389391353450236,19.110451674086804],[100.389490539238366,19.110306357516762],[100.389629676667241,19.110178810304106],[100.389773792681893,19.110078331893241],[100.389919690644035,19.109977839923697],[100.390080741475131,19.109913375399401],[100.390235106695997,19.109830890244496],[100.390367039135455,19.109694361440951],[100.390525713337297,19.109629914500111],[100.390664924921396,19.10951140150333],[100.39082292923851,19.109437923889708],[100.390959764287246,19.10931942864315],[100.391106924467138,19.10922796175517],[100.391238855703321,19.109091432393484],[100.391378066317472,19.10897291891121],[100.391534287669018,19.108899454204131],[100.391690433289043,19.108816954454262],[100.391858761866075,19.108770504427905],[100.392003469287189,19.108670019927267],[100.392160802511583,19.108587510821369],[100.392320068919773,19.108523057944616],[100.392464106169498,19.10841354268727],[100.392610000966286,19.108313048762621],[100.392766815135687,19.108239578584385],[100.392922365439773,19.10815708235555],[100.393059197893123,19.108038585693482],[100.393202715849483,19.107938109318304],[100.393350391861716,19.107837601370306],[100.393482320120256,19.1077010705669],[100.393640321358944,19.107627590708212],[100.393785026659231,19.107527104925932],[100.39393032581259,19.10742661454227],[100.394087732542744,19.107353138824045],[100.39423964141055,19.107261633646672],[100.394392219862723,19.107179158764136],[100.394535660502001,19.107069646529375],[100.394683410640368,19.10697817251129],[100.394827444937334,19.10686865557005],[100.394973930913793,19.106768155431254],[100.395119822680641,19.10666765968735],[100.395251824306953,19.106540162656668],[100.39539890375562,19.10643965770916],[100.395530235173737,19.106303130096844],[100.3956785780845,19.106211650847932],[100.395834794771886,19.106138182754098],[100.39599093550602,19.106055679631385],[100.396137420032815,19.105955178648099],[100.396268232249966,19.105827689973108],[100.396417092502404,19.105727170769114],[100.396547904324166,19.105599681917305],[100.396681016198528,19.10546314005698],[100.396839683649503,19.105398688055054],[100.396960320633895,19.105262240651619],[100.396993332658141,19.105090316120094],[100.396991815497174,19.104909618087024],[100.396988516289554,19.104728933570893],[100.39703170242619,19.104565967316891],[100.397030779288428,19.104385264769551],[100.397027480089037,19.104204580246158],[100.397022992873147,19.104023904732447],[100.397019099698895,19.103843224707791],[100.397018176634106,19.103662522145456],[100.39704465421174,19.103490647173114],[100.397056281341932,19.103318884867171],[100.397100655173418,19.103155909586771],[100.397097356016587,19.102975225044446],[100.397091010955165,19.10278552812856],[100.397134196619149,19.102622561855551],[100.397156515894309,19.102450718414115],[100.397169330936322,19.102278947080425],[100.397213704449456,19.102115971779551],[100.397209217247635,19.101935296239823],[100.39725121461052,19.10177233895995],[100.397249103443528,19.101591645388591],[100.397245456800462,19.101440328772934]]]}},
{"type":"Feature","properties":{"id":7515,"stream_id":4019123.0,"stream":1912.0,"str_class":4,"str_order":3,"length_m":286.930731,"str_cl_e":"Irrigation canal","str_cl_t":"คลองชลประทาน","str_name_e":null,"str_name_t":null},"geometry":{"type":"MultiLineString","coordinates":[[[100.394281035134398,19.090645052150681],[100.394244382607553,19.090807968497145],[100.394188128914919,19.090971033165086],[100.394123483850407,19.091125125817669],[100.394062402518699,19.091279191486326],[100.393984689794465,19.09143338297708],[100.393905713350534,19.091578548502831],[100.393888143165142,19.091750355916695],[100.393805084298322,19.091904587793888],[100.393739844591082,19.092058684835898],[100.39368529636522,19.092212700979307],[100.393648718632278,19.092384652166185],[100.393607907363801,19.092547599873051],[100.393568283984521,19.092710538586918],[100.393531630437366,19.092873454829203],[100.393493205844649,19.093108668452885]]]}},
{"type":"Feature","properties":{"id":7488,"stream_id":4019133.0,"stream":1913.0,"str_class":4,"str_order":3,"length_m":757.698937,"str_cl_e":"Irrigation canal","str_cl_t":"คลองชลประทาน","str_name_e":null,"str_name_t":null},"geometry":{"type":"MultiLineString","coordinates":[[[100.398018559935835,19.096519160419938],[100.398015835444411,19.096336212587694],[100.397970514379764,19.096173917878964],[100.397877231966334,19.096030058099686],[100.397726118043252,19.095931814518615],[100.397593114558561,19.095797291457675],[100.397431018586943,19.095735272872339],[100.397261352537981,19.095691382529996],[100.397099180951628,19.095620328727041],[100.396907322586827,19.095621783795199],[100.396736632834063,19.095668255584226],[100.396546556351367,19.095669696768184],[100.396375108579605,19.095625819100007],[100.396196684571322,19.095600065121292],[100.396023454975619,19.095556200621658],[100.395865441896731,19.095485114177421],[100.395713141586072,19.09538687783397],[100.395613921655112,19.095243061749983],[100.395460509467767,19.095153869089287],[100.395324538430174,19.095019366721377],[100.395225394780596,19.094884585305572],[100.395086529936307,19.094759140145676],[100.39491508340879,19.094715261029798],[100.394756477574305,19.094644178044721],[100.394596089910991,19.094573108404475],[100.394458413754478,19.094447653726473],[100.394303739245444,19.094349434078946],[100.394163093568409,19.09422400163059],[100.394085777436246,19.094070983323579],[100.394104978135275,19.093881092597535],[100.394204150763798,19.093735774120631],[100.394307556763181,19.093599459052431],[100.394458783818067,19.093498923939165],[100.394588994301955,19.09337144132628],[100.394663737323285,19.093217272074014],[100.39479565368778,19.093080740923071],[100.394933661023913,19.092962234556637],[100.39508318087691,19.092870747398379],[100.395226609350104,19.092761235272224],[100.395213809572397,19.092580622330161],[100.395197987597783,19.092535564683779]]]}},
{"type":"Feature","properties":{"id":7429,"stream_id":4019133.0,"stream":1913.0,"str_class":4,"str_order":3,"length_m":378.548725,"str_cl_e":"Irrigation canal","str_cl_t":"คลองชลประทาน","str_name_e":null,"str_name_t":null},"geometry":{"type":"MultiLineString","coordinates":[[[100.397189597326815,19.099739823351378],[100.397208352350503,19.099568006917668],[100.397226513345643,19.099396194987825],[100.397182379996693,19.099233891128772],[100.397187991143014,19.099053138920578],[100.397139105942529,19.09889087108656],[100.39719535881143,19.098727805667092],[100.397300471207203,19.098582440523295],[100.397346107705076,19.098428491091681],[100.397451219792416,19.098283125877632],[100.397558189552967,19.098146781997603],[100.397632931572261,19.097992611656395],[100.397700545503241,19.097838495382543],[100.397758061386739,19.097684455721481],[100.397774439755935,19.097512657275786],[100.397853933283045,19.097358450803476],[100.397896523158693,19.097195488903431],[100.397892035725576,19.097014813325213],[100.397935219491927,19.096851846910283],[100.397973651245792,19.09668891655366],[100.398018559935835,19.096519160419938]]]}},
{"type":"Feature","properties":{"id":7504,"stream_id":4019143.0,"stream":1914.0,"str_class":4,"str_order":3,"length_m":184.126497,"str_cl_e":"Irrigation canal","str_cl_t":"คลองชลประทาน","str_name_e":null,"str_name_t":null},"geometry":{"type":"MultiLineString","coordinates":[[[100.395197987597783,19.092535564683779],[100.395165004310456,19.09242738853894],[100.395106619809511,19.092265191773116],[100.395059520989307,19.092102909521063],[100.395063352822248,19.091922170603461],[100.395016848139505,19.09175988382805],[100.394998702968252,19.091579311310323],[100.394966972133389,19.091407877146921],[100.394971992051197,19.091227129217994],[100.395052499087512,19.090910277276333]]]}},
{"type":"Feature","properties":{"id":7489,"stream_id":4019153.0,"stream":1915.0,"str_class":4,"str_order":3,"length_m":191.060985,"str_cl_e":"Irrigation canal","str_cl_t":"คลองชลประทาน","str_name_e":null,"str_name_t":null},"geometry":{"type":"MultiLineString","coordinates":[[[100.393493205844649,19.093108668452885],[100.393667533649023,19.093071207732045],[100.393820099899088,19.092988734008141],[100.393978087453192,19.092915254641593],[100.394134292921905,19.092841788632736],[100.394305574707033,19.092795314884512],[100.394474480469682,19.092748858967056],[100.395197987597783,19.092535564683779]]]}},
{"type":"Feature","properties":{"id":7391,"stream_id":4019651.0,"stream":1965.0,"str_class":4,"str_order":1,"length_m":1378.000108,"str_cl_e":"Irrigation canal","str_cl_t":"คลองชลประทาน","str_name_e":null,"str_name_t":null},"geometry":{"type":"MultiLineString","coordinates":[[[100.397189597326815,19.099739823351378],[100.396998922228974,19.099741269803747],[100.396843381765194,19.099823768922565],[100.396686577312934,19.099897242020862],[100.39653222454416,19.099979731884915],[100.396376607803134,19.100053195727369],[100.396219878702937,19.1001357033626],[100.396076369135031,19.100236181629832],[100.39593048336684,19.100336677805025],[100.395785785431002,19.100437164870719],[100.395616278459599,19.100483626927453],[100.395461848817519,19.100557081045437],[100.395292341614862,19.100603542816835],[100.395146455022868,19.100704038417412],[100.395002350273998,19.100804520413796],[100.394869240395337,19.100941060978084],[100.394722759233886,19.10104156077357],[100.394577465909663,19.101142051466105],[100.394432766415591,19.101242537556207],[100.394286878723264,19.101343032537404],[100.394128883583846,19.101416512602938],[100.394028518758844,19.101561840209513],[100.393880254489005,19.101662352884862],[100.393721070829329,19.101735841620894],[100.393578227973975,19.101845348529491],[100.393443776751752,19.101963827329076],[100.393294323728981,19.102064348563079],[100.393158165722411,19.102191875577684],[100.393057799592043,19.102337202726627],[100.392982381889951,19.102482341106843],[100.392905257644671,19.102636527861744],[100.392859097688344,19.102799515871322],[100.392809373555934,19.102962530830251],[100.392766777535527,19.103125491864553],[100.392686607124944,19.103270666093618],[100.392648169048655,19.103433595658824],[100.392611588576898,19.103605546660432],[100.392572556352704,19.10376848070619],[100.392538276218943,19.103931378807086],[100.392454616750229,19.104085614834247],[100.392356031013719,19.104230928206491],[100.392215636838344,19.104349451175025],[100.39206246565621,19.104431928672625],[100.391901496453471,19.104505429505451],[100.391742903189055,19.104578912246286],[100.391598793004874,19.10467939188047],[100.391452306551585,19.104779889367919],[100.391305819917349,19.104880386748921],[100.391161115173077,19.10498087055911],[100.391003115122217,19.105054348220129],[100.390831225794983,19.105100824181708],[100.390639355989464,19.105102273413578],[100.39044926823928,19.105103708988068],[100.390276623732007,19.105059835170685],[100.390102197233205,19.105015974639592],[100.389927327740509,19.104990188279157],[100.389772796332963,19.104910035245101],[100.389595475431264,19.104875231563121],[100.389385407851591,19.104831639307793],[100.389088905253331,19.10475255690012],[100.388927915594167,19.104681487343278],[100.388772790883834,19.1046013378993],[100.388614771604622,19.104530245647982],[100.388441609435702,19.104495409453392],[100.388266071238405,19.10446059100591],[100.388103375477826,19.104398569058048],[100.387935408994352,19.104345622193829],[100.387775014185479,19.104274547091968],[100.38760534119325,19.104230648280978],[100.387447322706123,19.104159554970867],[100.387290417062161,19.104079417625211],[100.387102706295224,19.104080831769984],[100.38691024333977,19.104082281517339]]]}},
{"type":"Feature","properties":{"id":5903,"stream_id":4050041.0,"stream":5004.0,"str_class":4,"str_order":1,"length_m":2034.308247,"str_cl_e":"Irrigation canal","str_cl_t":"คลองชลประทาน","str_name_e":"Irrigation Canal","str_name_t":"คลองชลประทาน"},"geometry":{"type":"MultiLineString","coordinates":[[[99.801243466683701,19.184438805922152],[99.80129337223326,19.184556066755977],[99.80134090015018,19.184673337955349],[99.801398533395087,19.184790565006864],[99.801473317677292,19.184889643475749],[99.80156117945775,19.18498866478625],[99.801656681446786,19.185069579022269],[99.801759911094891,19.185150459440877],[99.801869635813659,19.185222274590213],[99.801984666735322,19.18528502965512],[99.802103220559829,19.185338732421283],[99.802222412649797,19.185401469141649],[99.802340372200902,19.185455174346835],[99.802454809024937,19.185517931702172],[99.802562750989225,19.185589754212927],[99.802667764683363,19.185670626288701],[99.802768617468004,19.185751516503895],[99.802870064780919,19.18583240405847],[99.802969134469379,19.185913301957566],[99.803067059201538,19.186003241632211],[99.803164940224832,19.186084144620015],[99.80326286516383,19.186174084180958],[99.803360151950983,19.186254989658181],[99.803458671528745,19.18634492650288],[99.803558930673503,19.186425818851639],[99.803659189915564,19.186506711141341],[99.803761826987056,19.186587592956467],[99.80386684189132,19.1866684642929],[99.803971813036597,19.186740298937369],[99.804079205873677,19.186821159725252],[99.804185960507823,19.186892986424276],[99.804293904101911,19.186964807845932],[99.804402442222866,19.187036626594097],[99.804513358175797,19.187108434848536],[99.804623679788406,19.187180245638597],[99.804736335332734,19.187243009304577],[99.80485081817703,19.187314801700246],[99.804966402157305,19.187368515555359],[99.805084407876762,19.187431255525791],[99.805206530806146,19.187484940531967],[99.805329204311619,19.187529586220961],[99.805455994991021,19.187565176935557],[99.805584569030856,19.187600759730636],[99.805716577867514,19.187609216903393],[99.805849137185035,19.187608634747534],[99.805982246961619,19.187599013262609],[99.806114167846289,19.187589396904951],[99.806247277584276,19.187579775228844],[99.806377547104063,19.187597276382835],[99.806503787596498,19.187641905596323],[99.806627650407719,19.187686545173509],[99.806758514477806,19.187704043438934],[99.80689166827365,19.187703457913404],[99.807024866094295,19.187711908910916],[99.807157469488018,19.187720362426251],[99.807290623283862,19.187719776610734],[99.807423777074874,19.187719190698608],[99.807555697929331,19.187709573304062],[99.807688257266889,19.187708989816635],[99.807821366963054,19.187699366998395],[99.80795324368691,19.187680712701741],[99.808073649741644,19.187625961584089],[99.808179701067871,19.187553199995911],[99.80828813004203,19.187480427874618],[99.808407346963534,19.187425681783449],[99.808537990405668,19.187397995697779],[99.808668677918959,19.1873793461369],[99.80880114870439,19.187360688623045],[99.80893306915398,19.187351070251072],[99.809064351009482,19.187332417790504],[99.809196271413683,19.187322799230614],[99.809328742079217,19.187304141339531],[99.809460023841694,19.187285488598725],[99.809590711136266,19.187266838387867],[99.809720165353184,19.187239156717435],[99.809822604890385,19.187157373337655],[99.8099274662477,19.187084616021778],[99.810050887533365,19.18703888713668],[99.810181530350732,19.187011199900741],[99.810311578687347,19.186983515198449],[99.810440438110177,19.186955835656608],[99.810571125007343,19.186937184760307],[99.810701767643152,19.186909497159746],[99.81083423776623,19.186890838199115],[99.810963097015289,19.186863158295758],[99.811094378198632,19.186844504404128],[99.811224470483111,19.186825855675796],[99.811355112903712,19.186798167616903],[99.81148516084447,19.186770482095426],[99.811614019873332,19.186742801741957],[99.811742240138798,19.18670608731918],[99.811868082615575,19.186669383329363],[99.811988486550106,19.186614629710871],[99.812102307350017,19.186550868346551],[99.812211922730853,19.186478088723909],[99.81232332130736,19.186405301143985],[99.812438969443562,19.186350568293523],[99.812558184085248,19.186295819578628],[99.812680965228552,19.1862410549925],[99.812804385059451,19.186195324301949],[99.812933243386496,19.186167643044776],[99.813065712602622,19.186148982502502],[99.813197676080023,19.186148397714764],[99.813330233982626,19.186147810197319],[99.813462241827338,19.186156261826138],[99.813594294065808,19.186173749965903],[99.813726940758514,19.186191235373464],[99.81385835421635,19.18619968935133],[99.813990406519821,19.186217177203101],[99.814122458847393,19.186234664958775],[99.814255016788493,19.186234076770752],[99.814388213582589,19.18624252245332],[99.814520132656156,19.186232900107495],[99.814635735450807,19.186169129298356],[99.81474416055157,19.186096353488203],[99.814867579649956,19.18605062143401],[99.814995843032094,19.186022941384412],[99.815125889655576,19.185995253324794],[99.815257125090241,19.185967559892443],[99.815387216100788,19.185948908253295],[99.815519134853773,19.185939285199634],[99.81565224244541,19.185929656767069],[99.815783061308125,19.185938112012913],[99.81589635887704,19.186009902669131],[99.816002523389628,19.18608172497294],[99.816132836995976,19.18610825580927],[99.816264844869622,19.186116705417525],[99.816397358108475,19.186107079085215],[99.816526171119989,19.186070358729072],[99.816651417496132,19.186033654157896],[99.816774835969397,19.185987920841558],[99.816896426521552,19.185933158784341],[99.817018061560958,19.185887433248187],[99.817142668672346,19.185841694398022],[99.817269698008488,19.185804981473915],[99.817399788607034,19.185786328420544],[99.817532256884803,19.185767664682444],[99.817665364162053,19.18575803479861],[99.817797327176407,19.185757446714614],[99.817929245566333,19.185747821938687],[99.81806239741961,19.185747228365049],[99.818195593902161,19.185755671291265],[99.818328745752879,19.185755077524131],[99.818461347819465,19.185763522907639],[99.818594499667626,19.18576292894744],[99.81881503240534,19.185761944988375]]]}}
]
}
